{
  "hospitals_medical_12.968_80.201_800": {
    "timestamp": 1758308395.084304,
    "data": {
      "type": "FeatureCollection",
      "features": [
        {
          "type": "Feature",
          "geometry": {
            "type": "Point",
            "coordinates": [
              80.2067733,
              12.9653846
            ]
          },
          "properties": {
            "amenity": "hospital",
            "healthcare": "hospital",
            "name": "Sarswathi Hospital",
            "wheelchair": "yes"
          }
        },
        {
          "type": "Feature",
          "geometry": {
            "type": "Point",
            "coordinates": [
              80.2076115,
              12.9651772
            ]
          },
          "properties": {
            "amenity": "pharmacy",
            "healthcare": "pharmacy"
          }
        },
        {
          "type": "Feature",
          "geometry": {
            "type": "Point",
            "coordinates": [
              80.2070403,
              12.9651808
            ]
          },
          "properties": {
            "amenity": "pharmacy",
            "healthcare": "pharmacy",
            "wheelchair": "no"
          }
        },
        {
          "type": "Feature",
          "geometry": {
            "type": "Point",
            "coordinates": [
              80.2064949,
              12.9653086
            ]
          },
          "properties": {
            "amenity": "pharmacy",
            "healthcare": "pharmacy"
          }
        },
        {
          "type": "Feature",
          "geometry": {
            "type": "Point",
            "coordinates": [
              80.2065693,
              12.9654845
            ]
          },
          "properties": {
            "amenity": "pharmacy",
            "healthcare": "pharmacy"
          }
        },
        {
          "type": "Feature",
          "geometry": {
            "type": "Point",
            "coordinates": [
              80.1981286,
              12.964259
            ]
          },
          "properties": {
            "addr:city": "Chennai",
            "addr:postcode": "600091",
            "addr:street": "Sabari Salai, Madipakkam",
            "amenity": "pharmacy",
            "brand": "Apollo Pharmacy",
            "brand:wikidata": "Q62562612",
            "dispensing": "yes",
            "drive_through": "no",
            "healthcare": "pharmacy",
            "name": "Apollo Pharmacy"
          }
        },
        {
          "type": "Feature",
          "geometry": {
            "type": "Point",
            "coordinates": [
              80.1958518,
              12.9645886
            ]
          },
          "properties": {
            "amenity": "hospital",
            "description": "Child and General Physician",
            "emergency": "no",
            "healthcare": "hospital",
            "healthcare:speciality": "general",
            "name": "Malar Clinic",
            "operator": "Dr. Arun",
            "operator:type": "public"
          }
        }
      ]
    },
    "location": {
      "lat": 12.96761,
      "lon": 80.20142,
      "radius": 800.0
    }
  },
  "hospitals_medical_13.087_80.193_800": {
    "timestamp": 1758308473.4432652,
    "data": {
      "type": "FeatureCollection",
      "features": [
        {
          "type": "Feature",
          "geometry": {
            "type": "Point",
            "coordinates": [
              80.1994692,
              13.0887983
            ]
          },
          "properties": {
            "addr:district": "Chennai",
            "addr:full": "New No.4, Old No.1620-A, 16Th Main Road, Anna Nagar",
            "addr:postcode": "600040",
            "addr:state": "Tamil Nadu",
            "amenity": "hospital",
            "healthcare": "hospital",
            "name": "Sri Devi Speciality Hospial",
            "source": "OpenGovernmentData"
          }
        },
        {
          "type": "Feature",
          "geometry": {
            "type": "Point",
            "coordinates": [
              80.1991661,
              13.0868667
            ]
          },
          "properties": {
            "addr:district": "Chennai",
            "addr:full": "2/1911, J-Block, 15 Th Main Road, Anna Nagar",
            "addr:postcode": "600040",
            "addr:state": "Tamil Nadu",
            "amenity": "hospital",
            "healthcare": "hospital",
            "name": "I K Hospital",
            "source": "OpenGovernmentData"
          }
        },
        {
          "type": "Feature",
          "geometry": {
            "type": "Point",
            "coordinates": [
              80.1870589,
              13.0859961
            ]
          },
          "properties": {
            "addr:city": "Chennai",
            "addr:district": "Chennai",
            "addr:full": "4 - A, Dr.J.Jayalalitha Nagar, Mogappair",
            "addr:housenumber": "4-A",
            "addr:postcode": "600037",
            "addr:state": "Tamil Nadu",
            "addr:suburb": "Mogappair East",
            "amenity": "hospital",
            "email": "icvddoctors@mmm.org.in",
            "emergency": "yes",
            "healthcare": "hospital",
            "name": "Madras Medical Mission Hospital - Institute of Cardio Vascular Diseases",
            "operator:type": "private",
            "phone": "044 2656 5991",
            "source": "OpenGovernmentData",
            "website": "http://www.madrasmedicalmission.org/",
            "wheelchair": "yes",
            "wikidata": "Q14956788",
            "wikipedia": "en:Madras Medical Mission"
          }
        },
        {
          "type": "Feature",
          "geometry": {
            "type": "Point",
            "coordinates": [
              80.1885088,
              13.090139
            ]
          },
          "properties": {
            "addr:housenumber": "4C",
            "addr:postcode": "600101",
            "addr:street": "TVS AVENUE",
            "amenity": "pharmacy",
            "name:en": "Sree Thirumal Pharmacy",
            "opening_hours": "Mo-Su 09:00-14:00, 17:00-23:00",
            "operator": "Nakeeran",
            "phone": "04426544609"
          }
        },
        {
          "type": "Feature",
          "geometry": {
            "type": "Point",
            "coordinates": [
              80.1983714,
              13.0860731
            ]
          },
          "properties": {
            "addr:housenumber": "18",
            "addr:street": "J.J. Complex, Jawaharlal Nehru Road, Thirumangalam",
            "amenity": "clinic",
            "healthcare": "clinic",
            "healthcare:speciality": "endocrinology",
            "name": "Dr. Ram's Diabetes & Endocrine Clinic",
            "opening_hours": "Mo, We, Fr 18:00-21:00",
            "phone": "9333193331"
          }
        },
        {
          "type": "Feature",
          "geometry": {
            "type": "Point",
            "coordinates": [
              80.1983243,
              13.0856328
            ]
          },
          "properties": {
            "addr:housenumber": "58",
            "addr:street": "J.J. Complex, Jawaharlal Nehru Road, Thirumangalam",
            "amenity": "clinic",
            "name": "Heart Care Clinic",
            "opening_hours": "Mo-Sa 18:00-21:00, 09:00-18:00; Su 10:00-12:00"
          }
        },
        {
          "type": "Feature",
          "geometry": {
            "type": "Point",
            "coordinates": [
              80.199355,
              13.0852419
            ]
          },
          "properties": {
            "amenity": "pharmacy",
            "healthcare": "pharmacy",
            "name": "Sathya Pharmacy"
          }
        },
        {
          "type": "Feature",
          "geometry": {
            "type": "Point",
            "coordinates": [
              80.1925899,
              13.0857391
            ]
          },
          "properties": {
            "addr:city": "Chennai",
            "addr:housenumber": "5/2",
            "addr:street": "Padikuppam Road",
            "addr:suburb": "Anna Nagar West",
            "amenity": "pharmacy",
            "healthcare": "pharmacy",
            "name": "A.R.R. Pharmacy",
            "phone": "9444629833"
          }
        },
        {
          "type": "Feature",
          "geometry": {
            "type": "Point",
            "coordinates": [
              80.1924583,
              13.085025
            ]
          },
          "properties": {
            "addr:city": "Chennai",
            "addr:street": "Padikuppam Road",
            "addr:suburb": "Anna Nagar West",
            "amenity": "pharmacy",
            "brand": "MedPlus",
            "brand:wikidata": "Q65684234",
            "healthcare": "pharmacy",
            "name": "MedPlus"
          }
        },
        {
          "type": "Feature",
          "geometry": {
            "type": "Point",
            "coordinates": [
              80.1924194,
              13.0847424
            ]
          },
          "properties": {
            "addr:housenumber": "100",
            "addr:street": "Padikuppam Road, Kamarajar Nagar, Anna Nagar West, Chennai",
            "amenity": "pharmacy",
            "description": "Free home delivery available",
            "name": "Madha Medicals",
            "phone": "9176154429"
          }
        },
        {
          "type": "Feature",
          "geometry": {
            "type": "Point",
            "coordinates": [
              80.192537,
              13.0855051
            ]
          },
          "properties": {
            "amenity": "clinic",
            "healthcare": "clinic",
            "name": "Anbu Dental Implant & Maxillofacial Clinic",
            "opening_hours": "Mo-Su 09:30-13:30, 16:30-21:30",
            "phone": "9940753151"
          }
        },
        {
          "type": "Feature",
          "geometry": {
            "type": "Point",
            "coordinates": [
              80.1974921,
              13.0873798
            ]
          },
          "properties": {
            "amenity": "pharmacy",
            "healthcare": "pharmacy",
            "name": "Coopertive Medicals"
          }
        },
        {
          "type": "Feature",
          "geometry": {
            "type": "Point",
            "coordinates": [
              80.1920654,
              13.0833415
            ]
          },
          "properties": {
            "addr:street": "Padikuppam road, Kamarajar Nagar, Thirumangalam, Anna Nagar West, Chennai",
            "amenity": "pharmacy",
            "name": "Anbu Medicals"
          }
        },
        {
          "type": "Feature",
          "geometry": {
            "type": "Point",
            "coordinates": [
              80.1970993,
              13.0874373
            ]
          },
          "properties": {
            "addr:housenumber": "1/16",
            "addr:street": "Welcome colony, Anna nagar west",
            "amenity": "pharmacy",
            "name": "Jayalakshmi Medicals"
          }
        },
        {
          "type": "Feature",
          "geometry": {
            "type": "Point",
            "coordinates": [
              80.1876882,
              13.0844879
            ]
          },
          "properties": {
            "addr:district": "Tiruvallur",
            "addr:full": "1/234, Mmda, Mogappair East",
            "addr:postcode": "600037",
            "addr:state": "Tamil Nadu",
            "amenity": "clinic",
            "healthcare": "clinic",
            "name": "Raj Nursing Home, Tiruvallur",
            "source": "OpenGovernmentData"
          }
        },
        {
          "type": "Feature",
          "geometry": {
            "type": "Point",
            "coordinates": [
              80.1877418,
              13.0896987
            ]
          },
          "properties": {
            "addr:district": "Chennai",
            "addr:full": "959, Tvs Colony Annanagar West Extension",
            "addr:postcode": "600101",
            "addr:state": "Tamil Nadu",
            "amenity": "hospital",
            "name": "SKS Hospital, Chennai",
            "source": "OpenGovernmentData"
          }
        },
        {
          "type": "Feature",
          "geometry": {
            "type": "Point",
            "coordinates": [
              80.1989896,
              13.0882891
            ]
          },
          "properties": {
            "addr:district": "Chennai",
            "addr:full": "Jawaharlal Nehru Rd, Bharathi Colony, Bharathi Nagar, Anna Nagar",
            "addr:postcode": "600040",
            "addr:state": "Tamil Nadu",
            "amenity": "hospital",
            "healthcare": "hospital",
            "name": "Prakash Hospial",
            "source": "OpenGovernmentData"
          }
        },
        {
          "type": "Feature",
          "geometry": {
            "type": "Point",
            "coordinates": [
              80.1857322,
              13.0875243
            ]
          },
          "properties": {
            "addr:city": "Chennai",
            "addr:district": "Chennai",
            "addr:full": "R 30 C, Ambattur Industrial Estate Road, Mogappair",
            "addr:housenumber": "R 30 C",
            "addr:postcode": "600101",
            "addr:state": "Tamil Nadu",
            "addr:street": "Ambattur Industrial Estate Road",
            "addr:subdistrict": "Mogappair",
            "alt_name": "International Centre For Cardio Thoracic and Vascular Diseases",
            "amenity": "hospital",
            "building": "yes",
            "building:levels": "3",
            "contact:mobile": "9790840976",
            "contact:phone": "04442017575;04426564224",
            "email": "translab@frontierlifeline.com",
            "fax": "044 26565150",
            "healthcare": "hospital",
            "name": "Frontier Lifeline Hospital",
            "operator:type": "private",
            "phone": "044 4201 7575",
            "source": "OpenGovernmentData",
            "website": "https://www.frontierlifeline.com/",
            "wheelchair": "yes",
            "wikipedia": "en:K. M. Cherian"
          }
        }
      ]
    },
    "location": {
      "lat": 13.087057,
      "lon": 80.192808,
      "radius": 800.0
    }
  },
  "hospitals_medical_13.009_80.005_800": {
    "timestamp": 1758370847.3437371,
    "data": {
      "type": "FeatureCollection",
      "features": []
    },
    "location": {
      "lat": 13.008937338572949,
      "lon": 80.0046248276498,
      "radius": 800.0
    }
  },
  "hospitals_medical_13.009_80.004_800": {
    "timestamp": 1758370902.7029138,
    "data": {
      "type": "FeatureCollection",
      "features": []
    },
    "location": {
      "lat": 13.008717559923799,
      "lon": 80.00440210654706,
      "radius": 800.0
    }
  },
  "hospitals_medical_13.009_80.005_2000": {
    "timestamp": 1758371055.2348802,
    "data": {
      "type": "FeatureCollection",
      "features": []
    },
    "location": {
      "lat": 13.008855213021551,
      "lon": 80.00453832767488,
      "radius": 2000.0
    }
  },
  "hospitals_medical_13.009_80.003_800": {
    "timestamp": 1758371786.3892443,
    "data": {
      "type": "FeatureCollection",
      "features": []
    },
    "location": {
      "lat": 13.008533,
      "lon": 80.003469,
      "radius": 800.0
    }
  },
  "hospitals_medical_13.047_80.282_800": {
    "timestamp": 1758385604.6169653,
    "data": {
      "type": "FeatureCollection",
      "features": [
        {
          "type": "Feature",
          "geometry": {
            "type": "Point",
            "coordinates": [
              80.280639,
              13.0527537
            ]
          },
          "properties": {
            "amenity": "hospital",
            "healthcare": "hospital"
          }
        }
      ]
    },
    "location": {
      "lat": 13.047126,
      "lon": 80.282434,
      "radius": 800.0
    }
  },
  "hospitals_medical_12.993_80.218_800": {
    "timestamp": 1758385696.438005,
    "data": {
      "type": "FeatureCollection",
      "features": [
        {
          "type": "Feature",
          "geometry": {
            "type": "Point",
            "coordinates": [
              80.2182467,
              12.985733
            ]
          },
          "properties": {
            "amenity": "pharmacy",
            "name": "Specialist Pharmacy"
          }
        },
        {
          "type": "Feature",
          "geometry": {
            "type": "Point",
            "coordinates": [
              80.2183829,
              12.9856134
            ]
          },
          "properties": {
            "addr:street": "7th Cross Street, Rajalaksmi nagar",
            "amenity": "hospital",
            "building": "yes",
            "emergency": "yes",
            "name": "Xcellent Care Hospital",
            "operator": "Xcellent Care Super Speciality Hospital ( P ) Ltd.",
            "website": "http://xcellentcarehospital.com"
          }
        }
      ]
    },
    "location": {
      "lat": 12.992865,
      "lon": 80.21788,
      "radius": 800.0
    }
  },
  "hospitals_medical_12.963_77.578_800": {
    "timestamp": 1758386962.8859317,
    "data": {
      "type": "FeatureCollection",
      "features": [
        {
          "type": "Feature",
          "geometry": {
            "type": "Point",
            "coordinates": [
              77.5715513,
              12.9606852
            ]
          },
          "properties": {
            "amenity": "pharmacy",
            "check_date": "2025-06-19",
            "name": "Sri Manjunatha Medical & General Stores"
          }
        },
        {
          "type": "Feature",
          "geometry": {
            "type": "Point",
            "coordinates": [
              77.5736828,
              12.9671955
            ]
          },
          "properties": {
            "addr:city": "bangalore",
            "addr:housenumber": "164",
            "addr:postcode": "560053",
            "addr:street": "P.o box 7182,1st floor, sultanpet,",
            "amenity": "pharmacy",
            "name": "Fair Deal Pharma (Medkart)",
            "phone": "080 2234 1736"
          }
        },
        {
          "type": "Feature",
          "geometry": {
            "type": "Point",
            "coordinates": [
              77.5747874,
              12.9563016
            ]
          },
          "properties": {
            "addr:district": "Bengaluru Urban",
            "addr:full": "K. R. Road, V. V. Puram",
            "addr:postcode": "560004",
            "addr:state": "Karnataka",
            "amenity": "hospital",
            "name": "Kims Hospital and Research Centre",
            "source": "OpenGovernmentData"
          }
        },
        {
          "type": "Feature",
          "geometry": {
            "type": "Point",
            "coordinates": [
              77.5728562,
              12.9619528
            ]
          },
          "properties": {
            "addr:district": "Bengaluru Urban",
            "addr:full": "Victoria Hospital Campus",
            "addr:postcode": "560002",
            "addr:state": "Karnataka",
            "amenity": "hospital",
            "healthcare": "hospital",
            "name": "Institute Of Nephro Urology hospital",
            "source": "OpenGovernmentData"
          }
        },
        {
          "type": "Feature",
          "geometry": {
            "type": "Point",
            "coordinates": [
              77.5790145,
              12.9633185
            ]
          },
          "properties": {
            "addr:district": "Bengaluru Urban",
            "addr:full": "Near Jamia Masjid, NR Road, Bengaluru",
            "addr:postcode": "560002",
            "addr:state": "Karnataka",
            "amenity": "hospital",
            "name": "Unani Hospital",
            "source": "Local Knowledge"
          }
        },
        {
          "type": "Feature",
          "geometry": {
            "type": "Point",
            "coordinates": [
              77.57708,
              12.9690341
            ]
          },
          "properties": {
            "addr:district": "Bengaluru Urban",
            "addr:full": "Cubbon Pet Main Road, Cubbonpet, Bengaluru",
            "addr:postcode": "560002",
            "addr:state": "Karnataka",
            "amenity": "clinic",
            "healthcare": "clinic",
            "name": "Shyam Clinic",
            "source": "Local Knowledge"
          }
        },
        {
          "type": "Feature",
          "geometry": {
            "type": "Point",
            "coordinates": [
              77.5736948,
              12.9634957
            ]
          },
          "properties": {
            "amenity": "hospital",
            "building": "hospital",
            "emergency": "yes",
            "healthcare": "hospital",
            "heritage": "2",
            "heritage:operator": "nmma",
            "heritage:website": "https://nmma.nic.in/nmma/exploreBuiltState.do?state=29",
            "name": "Victoria Hospital",
            "name:etymology:wikidata": "Q9439",
            "name:kn": "ವಿಕ್ಟೋರಿಯಾ ಆಸ್ಪತ್ರೆ",
            "ref:nmma": "KR20011022",
            "wheelchair": "yes",
            "wikidata": "Q7926782",
            "wikimedia_commons": "Category:Victoria Hospital, Bangalore",
            "wikipedia": "en:Victoria Hospital (Bangalore Medical College)"
          }
        },
        {
          "type": "Feature",
          "geometry": {
            "type": "Point",
            "coordinates": [
              77.5845256,
              12.9643477
            ]
          },
          "properties": {
            "addr:district": "Bengaluru Urban",
            "addr:full": "Near Town Hall, Sjp Road , South",
            "addr:postcode": "560002",
            "addr:state": "Karnataka",
            "amenity": "hospital",
            "emergency": "yes",
            "healthcare": "hospital",
            "name": "Dasappa Maternity Hospital",
            "name:kn": "ದಾಸಪ್ಪ ತಿರುಮಲಮ್ಮ ಆಸ್ಪತ್ರೆ",
            "source": "OpenGovernmentData"
          }
        },
        {
          "type": "Feature",
          "geometry": {
            "type": "Point",
            "coordinates": [
              77.5840403,
              12.9606538
            ]
          },
          "properties": {
            "addr:district": "Bengaluru Urban",
            "addr:full": "Chandrika Tower, JC Road, Bengaluru",
            "addr:postcode": "560002",
            "addr:state": "Karnataka",
            "addr:street": "Jayachamaraja Wodeyar Road",
            "amenity": "hospital",
            "healthcare": "hospital",
            "name": "Trustwell Hospitals",
            "source": "Local Knowledge",
            "website": "https://trustwellhospitals.com/"
          }
        }
      ]
    },
    "location": {
      "lat": 12.962867,
      "lon": 77.577509,
      "radius": 800.0
    }
  },
  "hospitals_medical_12.963_77.578_1000": {
    "timestamp": 1758387266.2365744,
    "data": {
      "type": "FeatureCollection",
      "features": [
        {
          "type": "Feature",
          "geometry": {
            "type": "Point",
            "coordinates": [
              77.5715513,
              12.9606852
            ]
          },
          "properties": {
            "amenity": "pharmacy",
            "check_date": "2025-06-19",
            "name": "Sri Manjunatha Medical & General Stores"
          }
        },
        {
          "type": "Feature",
          "geometry": {
            "type": "Point",
            "coordinates": [
              77.5736828,
              12.9671955
            ]
          },
          "properties": {
            "addr:city": "bangalore",
            "addr:housenumber": "164",
            "addr:postcode": "560053",
            "addr:street": "P.o box 7182,1st floor, sultanpet,",
            "amenity": "pharmacy",
            "name": "Fair Deal Pharma (Medkart)",
            "phone": "080 2234 1736"
          }
        },
        {
          "type": "Feature",
          "geometry": {
            "type": "Point",
            "coordinates": [
              77.570295,
              12.9681071
            ]
          },
          "properties": {
            "addr:city": "bangalore",
            "addr:housenumber": "76/2",
            "addr:postcode": "560001",
            "addr:street": "Avenue Road, Bangalore City",
            "amenity": "pharmacy",
            "phone": "+91 80 2287 7428",
            "source": "www.asklaila.com",
            "website": "https://www.microlabsltd.com/"
          }
        },
        {
          "type": "Feature",
          "geometry": {
            "type": "Point",
            "coordinates": [
              77.5781228,
              12.9711822
            ]
          },
          "properties": {
            "addr:district": "Bengaluru Urban",
            "addr:full": "7Th Cross, Rangaswamy Temple Street",
            "addr:postcode": "560053",
            "addr:state": "Karnataka",
            "amenity": "hospital",
            "name": "Amar Hospital",
            "name:kn": "ಅಮರ್ ಆಸ್ಪತ್ರೆ",
            "source": "OpenGovernmentData"
          }
        },
        {
          "type": "Feature",
          "geometry": {
            "type": "Point",
            "coordinates": [
              77.5713274,
              12.9583613
            ]
          },
          "properties": {
            "addr:district": "Bengaluru Urban",
            "addr:full": "248,4 Th Main Road Chamarajpet",
            "addr:postcode": "560018",
            "addr:state": "Karnataka",
            "amenity": "clinic",
            "name": "Jubilee Nursing Home",
            "source": "OpenGovernmentData"
          }
        },
        {
          "type": "Feature",
          "geometry": {
            "type": "Point",
            "coordinates": [
              77.5770294,
              12.9717138
            ]
          },
          "properties": {
            "addr:district": "Bengaluru Urban",
            "addr:full": "202/3 Mahesh Towers R T Street",
            "addr:postcode": "560053",
            "addr:state": "Karnataka",
            "amenity": "clinic",
            "name": "Mahesh Clinic",
            "source": "OpenGovernmentData"
          }
        },
        {
          "type": "Feature",
          "geometry": {
            "type": "Point",
            "coordinates": [
              77.5747874,
              12.9563016
            ]
          },
          "properties": {
            "addr:district": "Bengaluru Urban",
            "addr:full": "K. R. Road, V. V. Puram",
            "addr:postcode": "560004",
            "addr:state": "Karnataka",
            "amenity": "hospital",
            "name": "Kims Hospital and Research Centre",
            "source": "OpenGovernmentData"
          }
        },
        {
          "type": "Feature",
          "geometry": {
            "type": "Point",
            "coordinates": [
              77.5830996,
              12.9563042
            ]
          },
          "properties": {
            "addr:district": "Bengaluru Urban",
            "addr:full": "J.C.Road",
            "addr:postcode": "560002",
            "addr:state": "Karnataka",
            "amenity": "hospital",
            "name": "Bengaluru West Lions Hospital",
            "operator:type": "private",
            "source": "OpenGovernmentData",
            "website": "http://dpal.kar.nic.in/Kanunu%20padakosha%20PDF%20Files/Recognised%20Hospitals.pdf"
          }
        },
        {
          "type": "Feature",
          "geometry": {
            "type": "Point",
            "coordinates": [
              77.5843965,
              12.9685305
            ]
          },
          "properties": {
            "addr:district": "Bengaluru Urban",
            "addr:full": "No 37, Next To Ganesha Temple Near Cubbonpet Market Near Cubbonpet Market",
            "addr:postcode": "560002",
            "addr:state": "Karnataka",
            "amenity": "hospital",
            "name": "Punarjyoti Eye Hospital, Bengaluru Urban",
            "source": "OpenGovernmentData"
          }
        },
        {
          "type": "Feature",
          "geometry": {
            "type": "Point",
            "coordinates": [
              77.5728562,
              12.9619528
            ]
          },
          "properties": {
            "addr:district": "Bengaluru Urban",
            "addr:full": "Victoria Hospital Campus",
            "addr:postcode": "560002",
            "addr:state": "Karnataka",
            "amenity": "hospital",
            "healthcare": "hospital",
            "name": "Institute Of Nephro Urology hospital",
            "source": "OpenGovernmentData"
          }
        },
        {
          "type": "Feature",
          "geometry": {
            "type": "Point",
            "coordinates": [
              77.5755649,
              12.9543465
            ]
          },
          "properties": {
            "addr:district": "Bengaluru Urban",
            "addr:full": "506, Aswathankatte Road V V Puram",
            "addr:postcode": "560004",
            "addr:state": "Karnataka",
            "amenity": "hospital",
            "name": "Venkateswara Hospital, Bengaluru Urban",
            "name:kn": "ವೆಂಕಟೇಶ್ವರ ಆಸ್ಪತ್ರೆ",
            "source": "OpenGovernmentData"
          }
        },
        {
          "type": "Feature",
          "geometry": {
            "type": "Point",
            "coordinates": [
              77.5790145,
              12.9633185
            ]
          },
          "properties": {
            "addr:district": "Bengaluru Urban",
            "addr:full": "Near Jamia Masjid, NR Road, Bengaluru",
            "addr:postcode": "560002",
            "addr:state": "Karnataka",
            "amenity": "hospital",
            "name": "Unani Hospital",
            "source": "Local Knowledge"
          }
        },
        {
          "type": "Feature",
          "geometry": {
            "type": "Point",
            "coordinates": [
              77.5789065,
              12.970483
            ]
          },
          "properties": {
            "addr:district": "Bengaluru Urban",
            "addr:full": "Anchepet, Chickpet, Bengaluru",
            "addr:postcode": "560053",
            "addr:state": "Karnataka",
            "amenity": "clinic",
            "name": "Priya Clinic",
            "source": "Local Knowledge"
          }
        },
        {
          "type": "Feature",
          "geometry": {
            "type": "Point",
            "coordinates": [
              77.5777304,
              12.9712575
            ]
          },
          "properties": {
            "addr:district": "Bengaluru Urban",
            "addr:full": "Rangaswamy Temple Road, Mamulpet, Bengaluru",
            "addr:postcode": "560053",
            "addr:state": "Karnataka",
            "amenity": "clinic",
            "name": "Sham Singh Clinic",
            "source": "Local Knowledge"
          }
        },
        {
          "type": "Feature",
          "geometry": {
            "type": "Point",
            "coordinates": [
              77.5734571,
              12.9702549
            ]
          },
          "properties": {
            "addr:district": "Bengaluru Urban",
            "addr:full": "Santhusapet, Bengaluru",
            "addr:postcode": "560053",
            "addr:state": "Karnataka",
            "amenity": "hospital",
            "name": "Manavarthapet Pregnancy Hospital",
            "source": "Local Knowledge"
          }
        },
        {
          "type": "Feature",
          "geometry": {
            "type": "Point",
            "coordinates": [
              77.57708,
              12.9690341
            ]
          },
          "properties": {
            "addr:district": "Bengaluru Urban",
            "addr:full": "Cubbon Pet Main Road, Cubbonpet, Bengaluru",
            "addr:postcode": "560002",
            "addr:state": "Karnataka",
            "amenity": "clinic",
            "healthcare": "clinic",
            "name": "Shyam Clinic",
            "source": "Local Knowledge"
          }
        },
        {
          "type": "Feature",
          "geometry": {
            "type": "Point",
            "coordinates": [
              77.5828736,
              12.9564805
            ]
          },
          "properties": {
            "amenity": "pharmacy",
            "name": "Max Medicals"
          }
        },
        {
          "type": "Feature",
          "geometry": {
            "type": "Point",
            "coordinates": [
              77.5718768,
              12.9571579
            ]
          },
          "properties": {
            "addr:housenumber": "38/1",
            "addr:street": "Pampa Mahakavi Road",
            "addr:unit": "3",
            "amenity": "pharmacy",
            "check_date": "2023-09-09",
            "dispensing": "yes",
            "drive_through": "no",
            "healthcare": "pharmacy",
            "name": "Sri Lakshminarasimha Drug Centre"
          }
        },
        {
          "type": "Feature",
          "geometry": {
            "type": "Point",
            "coordinates": [
              77.5824398,
              12.9569057
            ]
          },
          "properties": {
            "amenity": "hospital",
            "name": "H Siddiah Referral Hospital"
          }
        },
        {
          "type": "Feature",
          "geometry": {
            "type": "Point",
            "coordinates": [
              77.5736948,
              12.9634957
            ]
          },
          "properties": {
            "amenity": "hospital",
            "building": "hospital",
            "emergency": "yes",
            "healthcare": "hospital",
            "heritage": "2",
            "heritage:operator": "nmma",
            "heritage:website": "https://nmma.nic.in/nmma/exploreBuiltState.do?state=29",
            "name": "Victoria Hospital",
            "name:etymology:wikidata": "Q9439",
            "name:kn": "ವಿಕ್ಟೋರಿಯಾ ಆಸ್ಪತ್ರೆ",
            "ref:nmma": "KR20011022",
            "wheelchair": "yes",
            "wikidata": "Q7926782",
            "wikimedia_commons": "Category:Victoria Hospital, Bangalore",
            "wikipedia": "en:Victoria Hospital (Bangalore Medical College)"
          }
        },
        {
          "type": "Feature",
          "geometry": {
            "type": "Point",
            "coordinates": [
              77.5845256,
              12.9643477
            ]
          },
          "properties": {
            "addr:district": "Bengaluru Urban",
            "addr:full": "Near Town Hall, Sjp Road , South",
            "addr:postcode": "560002",
            "addr:state": "Karnataka",
            "amenity": "hospital",
            "emergency": "yes",
            "healthcare": "hospital",
            "name": "Dasappa Maternity Hospital",
            "name:kn": "ದಾಸಪ್ಪ ತಿರುಮಲಮ್ಮ ಆಸ್ಪತ್ರೆ",
            "source": "OpenGovernmentData"
          }
        },
        {
          "type": "Feature",
          "geometry": {
            "type": "Point",
            "coordinates": [
              77.5840403,
              12.9606538
            ]
          },
          "properties": {
            "addr:district": "Bengaluru Urban",
            "addr:full": "Chandrika Tower, JC Road, Bengaluru",
            "addr:postcode": "560002",
            "addr:state": "Karnataka",
            "addr:street": "Jayachamaraja Wodeyar Road",
            "amenity": "hospital",
            "healthcare": "hospital",
            "name": "Trustwell Hospitals",
            "source": "Local Knowledge",
            "website": "https://trustwellhospitals.com/"
          }
        }
      ]
    },
    "location": {
      "lat": 12.962867,
      "lon": 77.577509,
      "radius": 1000.0
    }
  },
  "hospitals_medical_13.05_80.282_1000": {
    "timestamp": 1758397796.3162525,
    "data": {
      "type": "FeatureCollection",
      "features": [
        {
          "type": "Feature",
          "geometry": {
            "type": "Point",
            "coordinates": [
              80.2744473,
              13.0477722
            ]
          },
          "properties": {
            "addr:block": "Chennai Zone Ix",
            "addr:district": "Chennai",
            "addr:full": "New No: 119, Old No: 56, Ice House Police Station, Triplicane, Dr. Natesan St;Sudandira Nagar",
            "addr:postcode": "600005;600014",
            "addr:state": "Tamil Nadu",
            "amenity": "hospital",
            "healthcare": "hospital",
            "name": "Fousiya Hospital",
            "source": "OpenGovernmentData;Local Knowledge"
          }
        },
        {
          "type": "Feature",
          "geometry": {
            "type": "Point",
            "coordinates": [
              80.2736449,
              13.0524884
            ]
          },
          "properties": {
            "addr:district": "Chennai",
            "addr:full": "No: 290, Triplicane High Road, Triplicane",
            "addr:postcode": "600014",
            "addr:state": "Tamil Nadu",
            "amenity": "hospital",
            "healthcare": "hospital",
            "name": "Dr Agarwals Eye Hospital, Triplicane",
            "source": "OpenGovernmentData"
          }
        },
        {
          "type": "Feature",
          "geometry": {
            "type": "Point",
            "coordinates": [
              80.2735131,
              13.0508818
            ]
          },
          "properties": {
            "addr:block": "Chennai Zone Ix",
            "addr:district": "Chennai",
            "addr:full": "Muthiah Street, Dr. Natesan Road, Ice House, Mirsahibpet, Royapettah",
            "addr:postcode": "600005",
            "addr:state": "Tamil Nadu",
            "amenity": "hospital",
            "healthcare": "hospital",
            "name": "A.R.A Hospital For Women",
            "source": "OpenGovernmentData"
          }
        },
        {
          "type": "Feature",
          "geometry": {
            "type": "Point",
            "coordinates": [
              80.2779849,
              13.0544077
            ]
          },
          "properties": {
            "addr:district": "Chennai",
            "addr:full": "Narayana Krishnaraja Puram, Triplicane",
            "addr:postcode": "600005",
            "addr:state": "Tamil Nadu",
            "amenity": "clinic",
            "healthcare": "clinic",
            "name": "Dr. Vasanthi Clinic",
            "source": "Local Knowledge"
          }
        },
        {
          "type": "Feature",
          "geometry": {
            "type": "Point",
            "coordinates": [
              80.2747953,
              13.0490602
            ]
          },
          "properties": {
            "addr:district": "Chennai",
            "addr:postcode": "600014",
            "addr:state": "Tamil Nadu",
            "amenity": "hospital",
            "healthcare": "hospital",
            "name": "Vasantha Hospital",
            "source": "Local Knowledge"
          }
        },
        {
          "type": "Feature",
          "geometry": {
            "type": "Point",
            "coordinates": [
              80.2774772,
              13.0546321
            ]
          },
          "properties": {
            "addr:district": "Chennai",
            "addr:full": "Narayana Krishnaraja Puram",
            "addr:postcode": "600005",
            "addr:state": "Tamil Nadu",
            "amenity": "hospital",
            "healthcare": "hospital",
            "name": "Syma Hospital",
            "source": "Local Knowledge"
          }
        },
        {
          "type": "Feature",
          "geometry": {
            "type": "Point",
            "coordinates": [
              80.2756509,
              13.0547617
            ]
          },
          "properties": {
            "addr:district": "Chennai",
            "addr:full": "Narayana Krishnaraja Puram, Triplicane",
            "addr:postcode": "600005",
            "addr:state": "Tamil Nadu",
            "amenity": "hospital",
            "healthcare": "hospital",
            "name": "Sri Parthasarathy Hospital",
            "source": "Local Knowledge"
          }
        },
        {
          "type": "Feature",
          "geometry": {
            "type": "Point",
            "coordinates": [
              80.2771022,
              13.0554568
            ]
          },
          "properties": {
            "addr:district": "Chennai",
            "addr:postcode": "600005",
            "addr:state": "Tamil Nadu",
            "amenity": "clinic",
            "healthcare": "clinic",
            "name": "Homeopathy Clinic",
            "source": "Local Knowledge"
          }
        },
        {
          "type": "Feature",
          "geometry": {
            "type": "Point",
            "coordinates": [
              80.2784271,
              13.0594053
            ]
          },
          "properties": {
            "addr:district": "Chennai",
            "addr:full": "Triplicane, Victoria Hostel Road",
            "addr:postcode": "600005",
            "addr:state": "Tamil Nadu",
            "amenity": "hospital",
            "healthcare": "hospital",
            "name": "Kasturibai Gandhi Hospital",
            "name:etymology:wikidata": "Q264908",
            "name:ta": "கஸ்தூர்பா காந்தி மருத்துவமனை",
            "source": "OpenGovernmentData"
          }
        },
        {
          "type": "Feature",
          "geometry": {
            "type": "Point",
            "coordinates": [
              80.280639,
              13.0527537
            ]
          },
          "properties": {
            "amenity": "hospital",
            "healthcare": "hospital"
          }
        }
      ]
    },
    "location": {
      "lat": 13.0499526,
      "lon": 80.2824026,
      "radius": 1000.0
    }
  }
}