{"type": "FeatureCollection", "features": [{"type": "Feature", "geometry": {"type": "Point", "coordinates": [77.5700945, 12.9680925]}, "properties": {"amenity": "police", "name": "Cottenpet Police Station", "wheelchair": "no"}}, {"type": "Feature", "geometry": {"type": "Point", "coordinates": [77.5761878, 12.9649402]}, "properties": {"addr:street": "Sultan Road", "alt_name": "City Market Police Station", "amenity": "police", "name": "Krishna Rajendra Market Police Station"}}, {"type": "Feature", "geometry": {"type": "Point", "coordinates": [77.5736393, 12.9707012]}, "properties": {"amenity": "police", "name": "Chikkapete Police Station", "name:kn": "ಚಿಕ್ಕಪೇಟೆ ಆರಕ್ಷಕ ಠಾಣೆ"}}, {"type": "Feature", "geometry": {"type": "Point", "coordinates": [77.5787039, 12.9680176]}, "properties": {"amenity": "police", "name": "Avenue Road Police Chowky"}}, {"type": "Feature", "geometry": {"type": "Point", "coordinates": [77.5720622, 12.9601303]}, "properties": {"amenity": "police", "designation": "Central Police Station", "name": "Central Police Station", "name:kn": "ಕೇಂದ್ರಿಯ ಆರಕ್ಷಕ ಠಾಣೆ"}}, {"type": "Feature", "geometry": {"type": "Point", "coordinates": [77.5831297, 12.9609483]}, "properties": {"amenity": "police", "building": "yes", "name": "S.J. Park Police"}}]}