{"type": "FeatureCollection", "features": [{"type": "Feature", "geometry": {"type": "Point", "coordinates": [80.2738382, 13.0503601]}, "properties": {"amenity": "place_of_worship", "religion": "hindu"}}, {"type": "Feature", "geometry": {"type": "Point", "coordinates": [80.2745163, 13.0478521]}, "properties": {"amenity": "place_of_worship", "name": "Theerthabaleeswarar - Sapta Lingam", "religion": "hindu"}}, {"type": "Feature", "geometry": {"type": "Point", "coordinates": [80.2763632, 13.0543092]}, "properties": {"amenity": "place_of_worship", "building": "yes", "name": "Peyalvar Shrine", "religion": "hindu"}}, {"type": "Feature", "geometry": {"type": "Point", "coordinates": [80.2764546, 13.0539647]}, "properties": {"amenity": "place_of_worship", "denomination": "vaishnavism", "name": "Sri Parthasarathy Koil", "name:ta": "ஶ்ரீ பார்த்தாசாரதி கோயில்", "religion": "hindu", "wikidata": "Q3522649", "wikimedia_commons": "Category:Parthasarathy Temple, Triplicane", "wikipedia": "en:Parthasarathy Temple, Chennai"}}, {"type": "Feature", "geometry": {"type": "Point", "coordinates": [80.2763571, 13.0539452]}, "properties": {"amenity": "place_of_worship", "building": "temple", "denomination": "vaishnavism", "name": "Arulmigu Parthasarathy Swamy Temple", "name:ta": "அருள்மிகு பார்த்தசாரதி சுவாமி திருக்கோயில்", "religion": "hindu", "type": "multipolygon"}}]}