{"type": "FeatureCollection", "features": [{"type": "Feature", "geometry": {"type": "Point", "coordinates": [77.5768931, 12.9642064]}, "properties": {"bus": "yes", "crossing": "uncontrolled", "highway": "traffic_signals", "name": "KR Market", "name:en": "Krishnarajendra Market", "name:kn": "ಕೃಷ್ಣರಾಜೇಂದ್ರ ಮಾರುಕಟ್ಟೆ", "network": "BMTC", "operator": "BMTC", "public_transport": "stop_position"}}, {"type": "Feature", "geometry": {"type": "Point", "coordinates": [77.5736663, 12.9576092]}, "properties": {"bus": "yes", "highway": "bus_stop", "name": "Makkala Koota", "name:en": "Makkala Koota", "name:kn": "ಮಕ್ಕಳ ಕೂಟ", "network": "BMTC", "operator": "BMTC", "public_transport": "platform", "wheelchair": "no"}}, {"type": "Feature", "geometry": {"type": "Point", "coordinates": [77.5746822, 12.9608898]}, "properties": {"code": "KRMT", "name": "Krishna Rajendra Market", "name:kn": "ಕೃಷ್ಣರಾಜೇಂದ್ರ ಮಾರುಕಟ್ಟೆ", "network": "Namma Metro", "note": "Contributors are requested to not edit the \"network\" and the \"operator\" tags. (2023/11/08)", "operator": "Bangalore Metro Rail Corporation Limited", "platforms": "2", "public_transport": "stop_position", "public_transport:version": "2", "railway": "stop", "short_name": "K R Market", "source": "http://www.bmrc.co.in/English/Network.htm", "subway": "yes", "wheelchair": "yes", "wikidata": "Q24912918", "wikipedia": "en:Krishna Rajendra Market metro station"}}, {"type": "Feature", "geometry": {"type": "Point", "coordinates": [77.5745737, 12.966924]}, "properties": {"code": "CKPE", "name": "Chickpete", "name:hi": "चिकपेटे", "name:kn": "ಚಿಕ್ಕಪೇಟೆ", "network": "Namma Metro", "note": "Contributors are requested to not edit the \"network\" and the \"operator\" tags. (2023/11/08)", "operator": "Bangalore Metro Rail Corporation Limited", "public_transport": "stop_position", "public_transport:version": "2", "railway": "stop", "source": "http://www.bmrc.co.in/English/Network.htm", "subway": "yes", "wheelchair": "yes"}}, {"type": "Feature", "geometry": {"type": "Point", "coordinates": [77.5844925, 12.9636018]}, "properties": {"bus": "yes", "highway": "bus_stop", "name": "Town Hall", "name:en": "Town Hall", "name:kn": "ಮಹಾನಗರ ಪಾಲಿಕೆ", "network": "BMTC", "operator": "BMTC", "public_transport": "platform"}}, {"type": "Feature", "geometry": {"type": "Point", "coordinates": [77.5766596, 12.9639785]}, "properties": {"bus": "yes", "highway": "bus_stop", "name": "Krishnarajendra Market", "public_transport": "platform", "short_name": "K R Market", "wheelchair": "no"}}, {"type": "Feature", "geometry": {"type": "Point", "coordinates": [77.5842677, 12.9639001]}, "properties": {"bench": "yes", "bin": "yes", "bus": "yes", "check_date:bench": "2022-09-25", "covered": "yes", "highway": "bus_stop", "name": "Town Hall", "name:en": "Town Hall", "name:kn": "ಮಹಾನಗರ ಪಾಲಿಕೆ", "network": "BMTC", "operator": "BMTC", "public_transport": "platform", "shelter": "yes"}}, {"type": "Feature", "geometry": {"type": "Point", "coordinates": [77.5804651, 12.954972]}, "properties": {"highway": "bus_stop", "loc_name": "Lalbagh Fort Road", "name": "Minerva Circle", "name:kn": "ಮಿನರ್ವ ವೃತ್ತ"}}, {"type": "Feature", "geometry": {"type": "Point", "coordinates": [77.5737819, 12.9569244]}, "properties": {"highway": "bus_stop", "name": "Makkala Koota", "name:kn": "ಮಕ್ಕಳ ಕೂಟ"}}, {"type": "Feature", "geometry": {"type": "Point", "coordinates": [77.5749819, 12.961253]}, "properties": {"alt_name": "Veterinary Hospital", "bus": "yes", "highway": "bus_stop", "name": "KR Market", "name:en": "KR Market", "name:kn": "ಕೃಷ್ಣರಾಜೇಂದ್ರ ಮಾರುಕಟ್ಟೆ", "public_transport": "platform"}}, {"type": "Feature", "geometry": {"type": "Point", "coordinates": [77.5702108, 12.9678184]}, "properties": {"bus": "yes", "highway": "bus_stop", "name": "Cottonpet Hospital Super Talkies", "public_transport": "platform"}}, {"type": "Feature", "geometry": {"type": "Point", "coordinates": [77.5700688, 12.9650246]}, "properties": {"bus": "yes", "highway": "bus_stop", "loc_name": "COTTONPET", "name": "Vinayaka Talkies", "name:kn": "ವಿನಾಯಕ ಟಾಕೀಸ್", "public_transport": "platform", "wheelchair": "no"}}, {"type": "Feature", "geometry": {"type": "Point", "coordinates": [77.5771714, 12.9560863]}, "properties": {"bus": "yes", "highway": "bus_stop", "name": "Basappa Circle", "name:kn": "ಬಸಪ್ಪ ವೃತ್ತ", "public_transport": "platform"}}, {"type": "Feature", "geometry": {"type": "Point", "coordinates": [77.568668, 12.9607243]}, "properties": {"alt_name": "Rayan Circle", "bench": "yes", "bin": "no", "bus": "yes", "highway": "bus_stop", "loc_name": "CHAMARAJA PETE", "name": "Royan Circle", "name:kn": "ರಾಯನ್ ವೃತ್ತ", "public_transport": "platform", "shelter": "yes"}}, {"type": "Feature", "geometry": {"type": "Point", "coordinates": [77.5750888, 12.9612109]}, "properties": {"alt_name": "Veterinary Hospital", "bus": "yes", "name": "KR Market", "name:en": "KR Market", "name:kn": "ಕೃಷ್ಣರಾಜೇಂದ್ರ ಮಾರುಕಟ್ಟೆ", "public_transport": "stop_position"}}, {"type": "Feature", "geometry": {"type": "Point", "coordinates": [77.5772027, 12.9601936]}, "properties": {"bus": "yes", "departures_board": "timetable", "fixme": "Parent relations need to be changed to include corresponding platform node in KBS", "highway": "bus_stop", "name": "Krishnarajendra Market (Kalasipalya)", "name:kn": "ಕೃಷ್ಣರಾಜೇಂದ್ರ ಮಾರುಕಟ್ಟೆ", "operator": "Bengaluru Metropolitan Transport Corporation", "public_transport": "platform", "short_name": "K R Market", "wheelchair": "no"}}, {"type": "Feature", "geometry": {"type": "Point", "coordinates": [77.5745314, 12.9669249]}, "properties": {"code": "CKPE", "name": "Chickpete", "name:hi": "चिकपेटे", "name:kn": "ಚಿಕ್ಕಪೇಟೆ", "network": "Namma Metro", "note": "Contributors are requested to not edit the \"network\" and the \"operator\" tags. (2023/11/08)", "operator": "Bangalore Metro Rail Corporation Limited", "public_transport": "stop_position", "public_transport:version": "2", "railway": "stop", "source": "http://www.bmrc.co.in/English/Network.htm", "subway": "yes", "wheelchair": "yes"}}, {"type": "Feature", "geometry": {"type": "Point", "coordinates": [77.5746404, 12.960896]}, "properties": {"code": "KRMT", "name": "Krishna Rajendra Market", "name:kn": "ಕೃಷ್ಣರಾಜೇಂದ್ರ ಮಾರುಕಟ್ಟೆ", "network": "Namma Metro", "note": "Contributors are requested to not edit the \"network\" and the \"operator\" tags. (2023/11/08)", "operator": "Bangalore Metro Rail Corporation Limited", "platforms": "2", "public_transport": "stop_position", "public_transport:version": "2", "railway": "stop", "short_name": "K R Market", "source": "http://www.bmrc.co.in/English/Network.htm", "subway": "yes", "wheelchair": "yes", "wikidata": "Q24912918", "wikipedia": "en:Krishna Rajendra Market metro station"}}, {"type": "Feature", "geometry": {"type": "Point", "coordinates": [77.5746578, 12.9608788]}, "properties": {"code": "KRMT", "lit": "yes", "name": "Krishna Rajendra Market", "name:kn": "ಕೃಷ್ಣರಾಜೇಂದ್ರ ಮಾರುಕಟ್ಟೆ", "name:ml": "കൃഷ്ണ രാജേന്ദ്ര മാർക്കറ്റ്", "name:ta": "கிருஷ்ண ராஜேந்திர‌ மார்கெட்", "network": "Namma Metro", "note": "Contributors are requested to not edit the \"network\" and the \"operator\" tags. (2023/11/08)", "operator": "Bangalore Metro Rail Corporation Limited", "public_transport": "station", "public_transport:version": "2", "railway": "station", "shelter": "yes", "station": "subway", "subway": "yes", "tunnel": "yes", "website": "https://english.brmc.co.in", "wheelchair": "yes"}}, {"type": "Feature", "geometry": {"type": "Point", "coordinates": [77.5745566, 12.9668974]}, "properties": {"code": "CKPE", "lit": "yes", "name": "Chickpete", "name:hi": "चिकपेटे", "name:kn": "ಚಿಕ್ಕಪೇಟೆ", "name:ml": "ചിക്കപ്പേട്ട", "name:ta": "சிக்கபேட்டே", "network": "Namma Metro", "note": "Contributors are requested to not edit the \"network\" and the \"operator\" tags. (2023/11/08)", "operator": "Bangalore Metro Rail Corporation Limited", "public_transport": "station", "public_transport:version": "2", "railway": "station", "shelter": "yes", "station": "subway", "subway": "yes", "tunnel": "yes", "website": "https://english.brmc.co.in", "wheelchair": "yes"}}, {"type": "Feature", "geometry": {"type": "Point", "coordinates": [77.5774463, 12.9635939]}, "properties": {"bus": "yes", "highway": "bus_stop", "name": "KR Market", "name:en": "KR Market", "name:kn": "ಕೃಷ್ಣರಾಜೇಂದ್ರ ಮಾರುಕಟ್ಟೆ", "network": "BMTC", "operator": "BMTC", "public_transport": "platform"}}, {"type": "Feature", "geometry": {"type": "Point", "coordinates": [77.5772532, 12.9565027]}, "properties": {"bus": "yes", "highway": "bus_stop", "name": "Basappa Circle", "name:en": "Basappa Circle", "name:kn": "ಬಸಪ್ಪ ವೃತ್ತ", "network": "BMTC", "operator": "BMTC", "public_transport": "platform"}}, {"type": "Feature", "geometry": {"type": "Point", "coordinates": [77.5737037, 12.9575961]}, "properties": {"bus": "yes", "name": "Makkala Koota", "name:en": "Makkala Koota", "name:kn": "ಮಕ್ಕಳ ಕೂಟ", "network": "BMTC", "operator": "BMTC", "public_transport": "stop_position"}}, {"type": "Feature", "geometry": {"type": "Point", "coordinates": [77.5842663, 12.9638239]}, "properties": {"bus": "yes", "name": "Town Hall", "name:en": "Town Hall", "network": "BMTC", "operator": "BMTC", "public_transport": "stop_position"}}, {"type": "Feature", "geometry": {"type": "Point", "coordinates": [77.5775287, 12.9641556]}, "properties": {"bus": "yes", "name": "KR Market", "name:en": "KR Market", "name:kn": "ಕೃಷ್ಣರಾಜೇಂದ್ರ ಮಾರುಕಟ್ಟೆ", "network": "BMTC", "operator": "BMTC", "public_transport": "stop_position"}}, {"type": "Feature", "geometry": {"type": "Point", "coordinates": [77.5776413, 12.9642138]}, "properties": {"bench": "yes", "bus": "yes", "covered": "yes", "highway": "bus_stop", "name": "KR Market", "name:en": "Krishnarajendra Market", "name:kn": "ಕೃಷ್ಣರಾಜೇಂದ್ರ ಮಾರುಕಟ್ಟೆ", "network": "BMTC", "network:wikidata": "Q3345039", "operator": "BMTC", "public_transport": "platform", "shelter": "yes", "short_name": "K R Market", "wheelchair": "no"}}, {"type": "Feature", "geometry": {"type": "Point", "coordinates": [77.5730356, 12.9573368]}, "properties": {"bus": "yes", "name": "Makkala Koota", "name:en": "Makkala Koota", "name:kn": "ಮಕ್ಕಳ ಕೂಟ", "network": "BMTC", "operator": "BMTC", "public_transport": "stop_position"}}, {"type": "Feature", "geometry": {"type": "Point", "coordinates": [77.5730279, 12.9572556]}, "properties": {"bus": "yes", "highway": "bus_stop", "name": "Makkala Koota", "name:en": "Makkala Koota", "name:kn": "ಮಕ್ಕಳ ಕೂಟ", "network": "BMTC", "network:wikidata": "Q3345039", "operator": "BMTC", "public_transport": "platform"}}, {"type": "Feature", "geometry": {"type": "Point", "coordinates": [77.5773314, 12.9636047]}, "properties": {"bus": "yes", "name": "KR Market", "name:en": "KR Market", "network": "BMTC", "operator": "BMTC", "public_transport": "stop_position"}}, {"type": "Feature", "geometry": {"type": "Point", "coordinates": [77.5844796, 12.9636904]}, "properties": {"bus": "yes", "name": "Town Hall", "name:en": "Town Hall", "name:kn": "ಮಹಾನಗರ ಪಾಲಿಕೆ", "network": "BMTC", "operator": "BMTC", "public_transport": "stop_position"}}, {"type": "Feature", "geometry": {"type": "Point", "coordinates": [77.5789324, 12.9639618]}, "properties": {"bus": "yes", "name": "KR Market", "name:en": "KR Market", "name:kn": "ಕೃಷ್ಣರಾಜೇಂದ್ರ ಮಾರುಕಟ್ಟೆ", "network": "BMTC", "operator": "BMTC", "public_transport": "stop_position"}}, {"type": "Feature", "geometry": {"type": "Point", "coordinates": [77.5788818, 12.963972]}, "properties": {"bus": "yes", "highway": "bus_stop", "name": "KR Market", "name:en": "KR Market", "name:kn": "ಕೃಷ್ಣರಾಜೇಂದ್ರ ಮಾರುಕಟ್ಟೆ", "network": "BMTC", "network:wikidata": "Q3345039", "operator": "BMTC", "public_transport": "platform"}}, {"type": "Feature", "geometry": {"type": "Point", "coordinates": [77.5761889, 12.9645]}, "properties": {"bus": "yes", "highway": "bus_stop", "name": "KR Market", "name:en": "KR Market", "name:kn": "ಕೃಷ್ಣರಾಜೇಂದ್ರ ಮಾರುಕಟ್ಟೆ", "network": "BMTC", "operator": "BMTC", "public_transport": "platform", "short_name": "K R Market", "wheelchair": "no"}}, {"type": "Feature", "geometry": {"type": "Point", "coordinates": [77.5685892, 12.9638348]}, "properties": {"bus": "yes", "name": "Vinayaka Talkies", "name:en": "Vinayaka Talkies", "name:kn": "ವಿನಾಯಕ ಟಾಕೀಸ್", "network": "BMTC", "operator": "BMTC", "public_transport": "stop_position"}}, {"type": "Feature", "geometry": {"type": "Point", "coordinates": [77.5685298, 12.963891]}, "properties": {"bus": "yes", "highway": "bus_stop", "loc_name": "COTTONPET", "name": "Vinayaka Talkies", "name:en": "Vinayaka Talkies", "name:kn": "ವಿನಾಯಕ ಟಾಕೀಸ್", "network": "BMTC", "operator": "BMTC", "public_transport": "platform"}}, {"type": "Feature", "geometry": {"type": "Point", "coordinates": [77.5774231, 12.9610244]}, "properties": {"bus": "yes", "name": "Platform 6C", "operator": "BMTC", "public_transport": "stop_position"}}, {"type": "Feature", "geometry": {"type": "Point", "coordinates": [77.5773141, 12.9609478]}, "properties": {"bus": "yes", "name": "Platform 6B", "operator": "BMTC", "public_transport": "stop_position"}}, {"type": "Feature", "geometry": {"type": "Point", "coordinates": [77.5772111, 12.9608754]}, "properties": {"bus": "yes", "name": "Platform 6A", "operator": "BMTC", "public_transport": "stop_position"}}, {"type": "Feature", "geometry": {"type": "Point", "coordinates": [77.5771138, 12.960807]}, "properties": {"bus": "yes", "name": "Platform 6", "operator": "BMTC", "public_transport": "stop_position"}}, {"type": "Feature", "geometry": {"type": "Point", "coordinates": [77.5773906, 12.9608221]}, "properties": {"bus": "yes", "name": "Platform 5B", "operator": "BMTC", "public_transport": "stop_position"}}, {"type": "Feature", "geometry": {"type": "Point", "coordinates": [77.5772338, 12.9607074]}, "properties": {"bus": "yes", "name": "Platform 5A", "operator": "BMTC", "public_transport": "stop_position"}}, {"type": "Feature", "geometry": {"type": "Point", "coordinates": [77.5770855, 12.9605989]}, "properties": {"bus": "yes", "name": "Platform 5", "operator": "BMTC", "public_transport": "stop_position"}}, {"type": "Feature", "geometry": {"type": "Point", "coordinates": [77.5773696, 12.9606322]}, "properties": {"bus": "yes", "name": "Platform 4", "operator": "BMTC", "public_transport": "stop_position"}}, {"type": "Feature", "geometry": {"type": "Point", "coordinates": [77.5772587, 12.9605549]}, "properties": {"bus": "yes", "name": "Platform 3B", "operator": "BMTC", "public_transport": "stop_position"}}, {"type": "Feature", "geometry": {"type": "Point", "coordinates": [77.5771554, 12.9604827]}, "properties": {"bus": "yes", "name": "Platform 3A", "operator": "BMTC", "public_transport": "stop_position"}}, {"type": "Feature", "geometry": {"type": "Point", "coordinates": [77.5770383, 12.960401]}, "properties": {"bus": "yes", "name": "Platform 3", "operator": "BMTC", "public_transport": "stop_position"}}, {"type": "Feature", "geometry": {"type": "Point", "coordinates": [77.5772696, 12.9564797]}, "properties": {"bus": "yes", "name": "Basappa Circle", "name:en": "Basappa Circle", "network": "BMTC", "operator": "BMTC", "public_transport": "stop_position"}}, {"type": "Feature", "geometry": {"type": "Point", "coordinates": [77.5738382, 12.9576978]}, "properties": {"bus": "yes", "name": "Makkala Koota", "name:en": "Makkala Koota", "network": "BMTC", "operator": "BMTC", "public_transport": "stop_position"}}, {"type": "Feature", "geometry": {"type": "Point", "coordinates": [77.5738621, 12.9576895]}, "properties": {"highway": "bus_stop", "name": "Makkala Koota", "name:en": "Makkala Koota", "network": "BMTC", "operator": "BMTC", "public_transport": "platform"}}, {"type": "Feature", "geometry": {"type": "Point", "coordinates": [77.574148, 12.9584168]}, "properties": {"designation": "Namma Metro - Underground UG2", "electrified": "rail", "gauge": "1435", "layer": "-2", "name": "Namma Metro - Underground UG2", "name:kn": "ನಮ್ಮ ಮೆಟ್ರೋ", "network": "Namma Metro", "note": "Contributors are requested to not edit the \"network\" and the \"operator\" tags. (2023/11/08)", "operator": "Bangalore Metro Rail Corporation Limited", "railway": "subway", "subway": "yes", "tunnel": "yes", "voltage": "750"}}, {"type": "Feature", "geometry": {"type": "Point", "coordinates": [77.5739684, 12.9679772]}, "properties": {"designation": "Namma Metro - Underground UG2", "electrified": "rail", "gauge": "1435", "layer": "-2", "level": "-2", "name": "Namma Metro - Underground UG2", "name:kn": "ನಮ್ಮ ಮೆಟ್ರೋ", "network": "Namma Metro", "note": "Contributors are requested to not edit the \"network\" and the \"operator\" tags. (2023/11/08)", "operator": "Bangalore Metro Rail Corporation Limited", "railway": "subway", "subway": "yes", "tunnel": "yes", "voltage": "750"}}, {"type": "Feature", "geometry": {"type": "Point", "coordinates": [77.5746927, 12.9639105]}, "properties": {"designation": "Namma Metro - Underground UG2", "electrified": "rail", "gauge": "1435", "layer": "-2", "level": "-2", "name": "Namma Metro - Underground UG2", "name:kn": "ನಮ್ಮ ಮೆಟ್ರೋ", "network": "Namma Metro", "note": "Contributors are requested to not edit the \"network\" and the \"operator\" tags. (2023/11/08)", "operator": "Bangalore Metro Rail Corporation Limited", "railway": "subway", "subway": "yes", "tunnel": "yes", "voltage": "750"}}, {"type": "Feature", "geometry": {"type": "Point", "coordinates": [77.574106, 12.9584192]}, "properties": {"designation": "Namma Metro - Underground UG2", "electrified": "rail", "gauge": "1435", "layer": "-2", "name": "Namma Metro - Underground UG2", "name:kn": "ನಮ್ಮ ಮೆಟ್ರೋ", "network": "Namma Metro", "note": "Contributors are requested to not edit the \"network\" and the \"operator\" tags. (2023/11/08)", "operator": "Bangalore Metro Rail Corporation Limited", "railway": "subway", "subway": "yes", "tunnel": "yes", "voltage": "750"}}, {"type": "Feature", "geometry": {"type": "Point", "coordinates": [77.6837457, 12.9529789]}, "properties": {"fixme": "Approximate tracing", "name": "Sarjapura-Hebbal Line", "network": "Namma Metro", "railway": "proposed"}}, {"type": "Feature", "geometry": {"type": "Point", "coordinates": [77.577227, 12.9604564]}, "properties": {"building": "roof", "public_transport": "platform"}}, {"type": "Feature", "geometry": {"type": "Point", "coordinates": [77.5772648, 12.9606567]}, "properties": {"building": "roof", "public_transport": "platform"}}, {"type": "Feature", "geometry": {"type": "Point", "coordinates": [77.5773004, 12.9608504]}, "properties": {"building": "roof", "public_transport": "platform"}}, {"type": "Feature", "geometry": {"type": "Point", "coordinates": [77.5772353, 12.9609723]}, "properties": {"building": "roof", "public_transport": "platform"}}, {"type": "Feature", "geometry": {"type": "Point", "coordinates": [77.5772333, 12.9612591]}, "properties": {"building": "roof", "public_transport": "platform"}}, {"type": "Feature", "geometry": {"type": "Point", "coordinates": [77.5772939, 12.9610142]}, "properties": {"bench": "yes", "bus": "yes", "covered": "yes", "operator": "BMTC", "public_transport": "platform", "shelter": "yes", "wheelchair": "limited"}}, {"type": "Feature", "geometry": {"type": "Point", "coordinates": [77.5774528, 12.9609621]}, "properties": {"bench": "yes", "bus": "yes", "covered": "yes", "name": "Platform 6C", "operator": "BMTC", "public_transport": "platform", "shelter": "yes", "wheelchair": "limited"}}, {"type": "Feature", "geometry": {"type": "Point", "coordinates": [77.5772497, 12.9608146]}, "properties": {"bench": "yes", "bus": "yes", "covered": "yes", "name": "Platform 6A", "operator": "BMTC", "public_transport": "platform", "shelter": "yes", "wheelchair": "limited"}}, {"type": "Feature", "geometry": {"type": "Point", "coordinates": [77.5771482, 12.9607409]}, "properties": {"bench": "yes", "bus": "yes", "covered": "yes", "name": "Platform 6", "operator": "BMTC", "public_transport": "platform", "shelter": "yes", "wheelchair": "limited"}}, {"type": "Feature", "geometry": {"type": "Point", "coordinates": [77.5774135, 12.9607644]}, "properties": {"bench": "yes", "bus": "yes", "covered": "yes", "name": "Platform 5B", "operator": "BMTC", "public_transport": "platform", "shelter": "yes", "wheelchair": "limited"}}, {"type": "Feature", "geometry": {"type": "Point", "coordinates": [77.5772628, 12.9606552]}, "properties": {"bench": "yes", "bus": "yes", "covered": "yes", "name": "Platform 5A", "operator": "BMTC", "public_transport": "platform", "shelter": "yes", "wheelchair": "limited"}}, {"type": "Feature", "geometry": {"type": "Point", "coordinates": [77.5773515, 12.9608885]}, "properties": {"bench": "yes", "bus": "yes", "covered": "yes", "name": "Platform 6B", "operator": "BMTC", "public_transport": "platform", "shelter": "yes", "wheelchair": "limited"}}, {"type": "Feature", "geometry": {"type": "Point", "coordinates": [77.5771792, 12.9609329]}, "properties": {"bench": "yes", "bus": "yes", "covered": "yes", "operator": "BMTC", "public_transport": "platform", "shelter": "yes", "wheelchair": "limited"}}, {"type": "Feature", "geometry": {"type": "Point", "coordinates": [77.5771141, 12.9605474]}, "properties": {"bench": "yes", "bus": "yes", "covered": "yes", "name": "Platform 5", "operator": "BMTC", "public_transport": "platform", "shelter": "yes", "wheelchair": "limited"}}, {"type": "Feature", "geometry": {"type": "Point", "coordinates": [77.5771699, 12.9604191]}, "properties": {"bench": "yes", "bus": "yes", "covered": "yes", "name": "Platform 3A", "operator": "BMTC", "public_transport": "platform", "shelter": "yes", "wheelchair": "limited"}}, {"type": "Feature", "geometry": {"type": "Point", "coordinates": [77.577283, 12.9604984]}, "properties": {"bench": "yes", "bus": "yes", "covered": "yes", "name": "Platform 3B", "operator": "BMTC", "public_transport": "platform", "shelter": "yes", "wheelchair": "limited"}}, {"type": "Feature", "geometry": {"type": "Point", "coordinates": [77.5773947, 12.9605767]}, "properties": {"bench": "yes", "bus": "yes", "covered": "yes", "name": "Platform 4", "operator": "BMTC", "public_transport": "platform", "shelter": "yes", "wheelchair": "limited"}}, {"type": "Feature", "geometry": {"type": "Point", "coordinates": [77.577057, 12.96034]}, "properties": {"bench": "yes", "bus": "yes", "covered": "yes", "name": "Platform 3", "operator": "BMTC", "public_transport": "platform", "shelter": "yes", "wheelchair": "limited"}}, {"type": "Feature", "geometry": {"type": "Point", "coordinates": [77.5737473, 12.9714403]}, "properties": {"designation": "Namma Metro - Underground UG2", "electrified": "rail", "gauge": "1435", "layer": "-2", "level": "-2", "name": "Namma Metro - Underground UG2", "name:kn": "ನಮ್ಮ ಮೆಟ್ರೋ", "network": "Namma Metro", "note": "Contributors are requested to not edit the \"network\" and the \"operator\" tags. (2023/11/08)", "operator": "Bangalore Metro Rail Corporation Limited", "railway": "subway", "subway": "yes", "tunnel": "yes", "voltage": "750"}}, {"type": "Feature", "geometry": {"type": "Point", "coordinates": [77.5745007, 12.9667601]}, "properties": {"bench": "yes", "building": "yes", "covered": "yes", "departures_board": "realtime", "departures_board:speech_output": "yes", "layer": "2", "level": "2", "name": "Platform 1", "network": "Namma Metro", "operator": "BMRCL", "passenger_information_display": "yes", "public_transport": "platform", "railway": "platform", "ref": "1", "shelter": "yes", "subway": "yes", "surveillance": "yes", "tactile_paving": "yes", "wheelchair": "yes"}}, {"type": "Feature", "geometry": {"type": "Point", "coordinates": [77.574598, 12.9667579]}, "properties": {"bench": "yes", "building": "yes", "covered": "yes", "departures_board": "realtime", "departures_board:speech_output": "yes", "layer": "2", "level": "2", "name": "Platform 2", "network": "Namma Metro", "operator": "BMRCL", "passenger_information_display": "yes", "public_transport": "platform", "railway": "platform", "ref": "2", "shelter": "yes", "subway": "yes", "surveillance": "yes", "tactile_paving": "yes", "wheelchair": "yes"}}, {"type": "Feature", "geometry": {"type": "Point", "coordinates": [77.5745469, 12.9605211]}, "properties": {"bench": "yes", "building": "yes", "covered": "yes", "departures_board": "realtime", "departures_board:speech_output": "yes", "layer": "2", "level": "2", "name": "Platform 1", "network": "Namma Metro", "operator": "BMRCL", "passenger_information_display": "yes", "public_transport": "platform", "railway": "platform", "ref": "1", "shelter": "yes", "subway": "yes", "surveillance": "yes", "tactile_paving": "yes", "wheelchair": "yes"}}, {"type": "Feature", "geometry": {"type": "Point", "coordinates": [77.5746431, 12.9605066]}, "properties": {"bench": "yes", "building": "yes", "covered": "yes", "departures_board": "realtime", "departures_board:speech_output": "yes", "layer": "2", "level": "2", "name": "Platform 2", "network": "Namma Metro", "operator": "BMRCL", "passenger_information_display": "yes", "public_transport": "platform", "railway": "platform", "ref": "2", "shelter": "yes", "subway": "yes", "surveillance": "yes", "tactile_paving": "yes", "wheelchair": "yes"}}, {"type": "Feature", "geometry": {"type": "Point", "coordinates": [77.5736483, 12.9532344]}, "properties": {"bridge": "viaduct", "designation": "Namma Metro - Reach 4", "electrified": "rail", "frequency": "0", "gauge": "1435", "layer": "2", "name": "Namma Metro - Reach 4", "name:kn": "ನಮ್ಮ ಮೆಟ್ರೊ", "network": "Namma Metro", "note": "Contributors are requested to not edit the \"network\" and the \"operator\" tags. (2023/11/08)", "operator": "Bangalore Metro Rail Corporation Limited", "railway": "subway", "subway": "yes", "voltage": "750"}}, {"type": "Feature", "geometry": {"type": "Point", "coordinates": [77.5736906, 12.9532348]}, "properties": {"bridge": "viaduct", "designation": "Namma Metro - Reach 4", "electrified": "rail", "frequency": "0", "gauge": "1435", "layer": "2", "name": "Namma Metro - Reach 4", "name:kn": "ನಮ್ಮ ಮೆಟ್ರೊ", "network": "Namma Metro", "note": "Contributors are requested to not edit the \"network\" and the \"operator\" tags. (2023/11/08)", "operator": "Bangalore Metro Rail Corporation Limited", "railway": "subway", "subway": "yes", "voltage": "750"}}]}