{"type": "FeatureCollection", "features": [{"type": "Feature", "geometry": {"type": "Point", "coordinates": [80.1984713, 13.083905]}, "properties": {"highway": "primary", "motorroad": "no", "name": "Jawaharlal Nehru Road (100 Feet Road)", "name:etymology:wikidata": "Q1047", "name:ta": "ஜவகர்லால் நேரு சாலை (100 அடி சாலை)", "oneway": "yes", "parking:left": "lane", "parking:left:orientation": "parallel", "parking:right": "no", "ref": "IRR", "surface": "asphalt"}}, {"type": "Feature", "geometry": {"type": "Point", "coordinates": [80.1931418, 13.0941337]}, "properties": {"highway": "tertiary", "lanes": "1", "name": "Park Road", "name:ta": "பூங்கா சாலை", "oneway": "yes", "surface": "asphalt"}}, {"type": "Feature", "geometry": {"type": "Point", "coordinates": [80.1881499, 13.0866074]}, "properties": {"highway": "secondary", "lane_markings": "no", "lanes": "2", "name": "Bazaar Road", "surface": "asphalt"}}, {"type": "Feature", "geometry": {"type": "Point", "coordinates": [80.1903497, 13.0836995]}, "properties": {"highway": "residential"}}, {"type": "Feature", "geometry": {"type": "Point", "coordinates": [80.1958052, 13.0930928]}, "properties": {"highway": "tertiary", "lane_markings": "no", "lanes": "2", "name": "School Road", "surface": "asphalt"}}, {"type": "Feature", "geometry": {"type": "Point", "coordinates": [80.2005674, 13.0890295]}, "properties": {"highway": "residential", "name": "16th Main Road"}}, {"type": "Feature", "geometry": {"type": "Point", "coordinates": [80.1973695, 13.0913685]}, "properties": {"highway": "residential", "name": "E Main Road"}}, {"type": "Feature", "geometry": {"type": "Point", "coordinates": [80.1996573, 13.0900626]}, "properties": {"highway": "residential"}}, {"type": "Feature", "geometry": {"type": "Point", "coordinates": [80.1993181, 13.0883756]}, "properties": {"highway": "residential"}}, {"type": "Feature", "geometry": {"type": "Point", "coordinates": [80.1996014, 13.0884153]}, "properties": {"highway": "residential"}}, {"type": "Feature", "geometry": {"type": "Point", "coordinates": [80.1995893, 13.0881101]}, "properties": {"highway": "residential"}}, {"type": "Feature", "geometry": {"type": "Point", "coordinates": [80.1998326, 13.0867226]}, "properties": {"highway": "residential"}}, {"type": "Feature", "geometry": {"type": "Point", "coordinates": [80.1997373, 13.083487]}, "properties": {"highway": "residential"}}, {"type": "Feature", "geometry": {"type": "Point", "coordinates": [80.1997572, 13.0842987]}, "properties": {"addr:city": "Thirumangalam, Chennai", "addr:street": "Nehru Nagar", "highway": "residential", "name": "3ஆம் தெரு", "name:en": "3rd Street", "postal_code": "600040"}}, {"type": "Feature", "geometry": {"type": "Point", "coordinates": [80.199742, 13.0839912]}, "properties": {"addr:city": "Thirumangalam, Chennai", "addr:street": "Nehru Nagar", "highway": "residential", "name": "4ஆம் தெரு", "name:en": "4th Street", "postal_code": "600040"}}, {"type": "Feature", "geometry": {"type": "Point", "coordinates": [80.2000746, 13.0846019]}, "properties": {"addr:city": "Thirumangalam, Chennai", "addr:street": "Nehru Nagar", "highway": "residential", "name": "2ஆம் தெரு", "name:en": "2nd Street", "postal_code": "600040"}}, {"type": "Feature", "geometry": {"type": "Point", "coordinates": [80.195459, 13.0905465]}, "properties": {"highway": "residential", "name": "9th Street"}}, {"type": "Feature", "geometry": {"type": "Point", "coordinates": [80.1953448, 13.095375]}, "properties": {"highway": "residential", "name": "3rd Avenue"}}, {"type": "Feature", "geometry": {"type": "Point", "coordinates": [80.1991866, 13.0842347]}, "properties": {"highway": "residential", "name": "Nehru Nagar"}}, {"type": "Feature", "geometry": {"type": "Point", "coordinates": [80.199788, 13.08494]}, "properties": {"addr:city": "Thirumangalam, Chennai", "addr:street": "Nehru Nagar", "highway": "residential", "name": "1ஆம் தெரு", "name:en": "1st Street", "postal_code": "600040"}}, {"type": "Feature", "geometry": {"type": "Point", "coordinates": [80.1985703, 13.0871081]}, "properties": {"highway": "primary", "name": "Thirumangalam – Mogappair Road", "oneway": "yes", "ref": "SH112"}}, {"type": "Feature", "geometry": {"type": "Point", "coordinates": [80.2006359, 13.0909901]}, "properties": {"highway": "residential", "name": "17th Main Road"}}, {"type": "Feature", "geometry": {"type": "Point", "coordinates": [80.1952019, 13.0910629]}, "properties": {"highway": "residential", "name": "4th Avenue"}}, {"type": "Feature", "geometry": {"type": "Point", "coordinates": [80.1946018, 13.0920965]}, "properties": {"highway": "residential", "surface": "asphalt"}}, {"type": "Feature", "geometry": {"type": "Point", "coordinates": [80.1958077, 13.0920611]}, "properties": {"highway": "residential", "name": "E Gate Road"}}, {"type": "Feature", "geometry": {"type": "Point", "coordinates": [80.1965978, 13.0915808]}, "properties": {"highway": "residential"}}, {"type": "Feature", "geometry": {"type": "Point", "coordinates": [80.196614, 13.0920202]}, "properties": {"highway": "residential"}}, {"type": "Feature", "geometry": {"type": "Point", "coordinates": [80.1966331, 13.092505]}, "properties": {"highway": "residential"}}, {"type": "Feature", "geometry": {"type": "Point", "coordinates": [80.1938521, 13.0926122]}, "properties": {"highway": "residential"}}, {"type": "Feature", "geometry": {"type": "Point", "coordinates": [80.1938185, 13.091693]}, "properties": {"highway": "residential", "name": "8th Street", "name:ta": "8வது தெரு"}}, {"type": "Feature", "geometry": {"type": "Point", "coordinates": [80.1936174, 13.0921598]}, "properties": {"highway": "residential"}}, {"type": "Feature", "geometry": {"type": "Point", "coordinates": [80.1941092, 13.0921109]}, "properties": {"highway": "residential", "name": "W Gate Road"}}, {"type": "Feature", "geometry": {"type": "Point", "coordinates": [80.1951457, 13.0896836]}, "properties": {"highway": "residential", "name": "6th Avenue"}}, {"type": "Feature", "geometry": {"type": "Point", "coordinates": [80.1951341, 13.0891614]}, "properties": {"highway": "residential", "name": "7th Avenue"}}, {"type": "Feature", "geometry": {"type": "Point", "coordinates": [80.1935017, 13.0892429]}, "properties": {"highway": "residential"}}, {"type": "Feature", "geometry": {"type": "Point", "coordinates": [80.1951065, 13.0892311]}, "properties": {"highway": "residential", "name": "12th Avenue"}}, {"type": "Feature", "geometry": {"type": "Point", "coordinates": [80.1943443, 13.0901286]}, "properties": {"highway": "residential", "name": "11th Street"}}, {"type": "Feature", "geometry": {"type": "Point", "coordinates": [80.1952481, 13.0936036]}, "properties": {"highway": "residential", "name": "1st Street"}}, {"type": "Feature", "geometry": {"type": "Point", "coordinates": [80.1937073, 13.0951264]}, "properties": {"highway": "residential"}}, {"type": "Feature", "geometry": {"type": "Point", "coordinates": [80.1854146, 13.0874675]}, "properties": {"highway": "residential", "name": "Greenfields colony road"}}, {"type": "Feature", "geometry": {"type": "Point", "coordinates": [80.1863655, 13.0866687]}, "properties": {"highway": "residential", "surface": "asphalt"}}, {"type": "Feature", "geometry": {"type": "Point", "coordinates": [80.1852623, 13.0865841]}, "properties": {"highway": "residential", "surface": "asphalt"}}, {"type": "Feature", "geometry": {"type": "Point", "coordinates": [80.187085, 13.0868488]}, "properties": {"highway": "residential", "oneway": "yes", "surface": "asphalt"}}, {"type": "Feature", "geometry": {"type": "Point", "coordinates": [80.1855556, 13.0860927]}, "properties": {"highway": "residential"}}, {"type": "Feature", "geometry": {"type": "Point", "coordinates": [80.1872135, 13.0871917]}, "properties": {"highway": "residential", "surface": "asphalt"}}, {"type": "Feature", "geometry": {"type": "Point", "coordinates": [80.189968, 13.0864238]}, "properties": {"highway": "residential", "name": "Kalaivanar Colony Main Street"}}, {"type": "Feature", "geometry": {"type": "Point", "coordinates": [80.1900777, 13.0857488]}, "properties": {"highway": "residential"}}, {"type": "Feature", "geometry": {"type": "Point", "coordinates": [80.1896943, 13.0889387]}, "properties": {"highway": "residential", "name": "T.V.S. Colony 1st Main Road", "surface": "asphalt"}}, {"type": "Feature", "geometry": {"type": "Point", "coordinates": [80.1886961, 13.0901457]}, "properties": {"highway": "residential", "name": "T.V.S. Avenue Main Road", "oneway": "no", "surface": "asphalt"}}, {"type": "Feature", "geometry": {"type": "Point", "coordinates": [80.1875892, 13.0887448]}, "properties": {"highway": "residential", "name": "T.V.S. Colony 2nd Main Road", "surface": "asphalt"}}, {"type": "Feature", "geometry": {"type": "Point", "coordinates": [80.1886109, 13.0930327]}, "properties": {"highway": "residential", "maxspeed": "30", "name": "Mahatma Gandhi Road", "name:etymology:wikidata": "Q1001"}}, {"type": "Feature", "geometry": {"type": "Point", "coordinates": [80.1902035, 13.0931188]}, "properties": {"highway": "residential"}}, {"type": "Feature", "geometry": {"type": "Point", "coordinates": [80.1891778, 13.0865834]}, "properties": {"highway": "residential"}}, {"type": "Feature", "geometry": {"type": "Point", "coordinates": [80.1890067, 13.0865356]}, "properties": {"highway": "residential"}}, {"type": "Feature", "geometry": {"type": "Point", "coordinates": [80.1895946, 13.0854335]}, "properties": {"highway": "residential"}}, {"type": "Feature", "geometry": {"type": "Point", "coordinates": [80.1899198, 13.0850555]}, "properties": {"highway": "residential"}}, {"type": "Feature", "geometry": {"type": "Point", "coordinates": [80.1865533, 13.0832442]}, "properties": {"highway": "residential", "name": "Pugazhenthi Road"}}, {"type": "Feature", "geometry": {"type": "Point", "coordinates": [80.187841, 13.0853832]}, "properties": {"highway": "secondary", "lane_markings": "no", "lanes": "2", "surface": "asphalt"}}, {"type": "Feature", "geometry": {"type": "Point", "coordinates": [80.1872106, 13.0826561]}, "properties": {"highway": "residential"}}, {"type": "Feature", "geometry": {"type": "Point", "coordinates": [80.195307, 13.0872436]}, "properties": {"highway": "primary", "lanes": "3", "name": "Thirumangalam – Mogappair Road", "oneway": "yes", "parking:left": "lane", "parking:left:orientation": "parallel", "parking:right": "no", "ref": "SH112", "surface": "asphalt"}}, {"type": "Feature", "geometry": {"type": "Point", "coordinates": [80.1890583, 13.0870792]}, "properties": {"highway": "residential"}}, {"type": "Feature", "geometry": {"type": "Point", "coordinates": [80.1907361, 13.0865734]}, "properties": {"highway": "residential", "name": "Gandhi Street", "name:etymology:wikidata": "Q1001"}}, {"type": "Feature", "geometry": {"type": "Point", "coordinates": [80.1886439, 13.0831673]}, "properties": {"highway": "residential"}}, {"type": "Feature", "geometry": {"type": "Point", "coordinates": [80.1898323, 13.0847662]}, "properties": {"highway": "residential"}}, {"type": "Feature", "geometry": {"type": "Point", "coordinates": [80.1897654, 13.0844931]}, "properties": {"highway": "residential"}}, {"type": "Feature", "geometry": {"type": "Point", "coordinates": [80.1896822, 13.084215]}, "properties": {"highway": "residential"}}, {"type": "Feature", "geometry": {"type": "Point", "coordinates": [80.1895878, 13.0839372]}, "properties": {"highway": "residential"}}, {"type": "Feature", "geometry": {"type": "Point", "coordinates": [80.1888201, 13.0811115]}, "properties": {"highway": "residential"}}, {"type": "Feature", "geometry": {"type": "Point", "coordinates": [80.1889424, 13.0815833]}, "properties": {"highway": "residential"}}, {"type": "Feature", "geometry": {"type": "Point", "coordinates": [80.1888831, 13.0814054]}, "properties": {"highway": "residential"}}, {"type": "Feature", "geometry": {"type": "Point", "coordinates": [80.1889936, 13.0818026]}, "properties": {"highway": "residential"}}, {"type": "Feature", "geometry": {"type": "Point", "coordinates": [80.1890428, 13.0820869]}, "properties": {"highway": "residential"}}, {"type": "Feature", "geometry": {"type": "Point", "coordinates": [80.1891036, 13.0823794]}, "properties": {"highway": "residential"}}, {"type": "Feature", "geometry": {"type": "Point", "coordinates": [80.1893003, 13.0829506]}, "properties": {"highway": "residential"}}, {"type": "Feature", "geometry": {"type": "Point", "coordinates": [80.1893832, 13.0832923]}, "properties": {"highway": "residential"}}, {"type": "Feature", "geometry": {"type": "Point", "coordinates": [80.189474, 13.0836361]}, "properties": {"highway": "residential"}}, {"type": "Feature", "geometry": {"type": "Point", "coordinates": [80.1903558, 13.0851329]}, "properties": {"highway": "residential"}}, {"type": "Feature", "geometry": {"type": "Point", "coordinates": [80.1883548, 13.0866854]}, "properties": {"highway": "residential"}}, {"type": "Feature", "geometry": {"type": "Point", "coordinates": [80.1905617, 13.0859693]}, "properties": {"highway": "residential"}}, {"type": "Feature", "geometry": {"type": "Point", "coordinates": [80.1892145, 13.0860934]}, "properties": {"highway": "residential"}}, {"type": "Feature", "geometry": {"type": "Point", "coordinates": [80.1885845, 13.0858372]}, "properties": {"highway": "residential"}}, {"type": "Feature", "geometry": {"type": "Point", "coordinates": [80.1882428, 13.0849794]}, "properties": {"highway": "residential"}}, {"type": "Feature", "geometry": {"type": "Point", "coordinates": [80.1874217, 13.0840813]}, "properties": {"highway": "residential"}}, {"type": "Feature", "geometry": {"type": "Point", "coordinates": [80.1880795, 13.0825889]}, "properties": {"highway": "residential"}}, {"type": "Feature", "geometry": {"type": "Point", "coordinates": [80.1856346, 13.0841257]}, "properties": {"highway": "residential"}}, {"type": "Feature", "geometry": {"type": "Point", "coordinates": [80.1931929, 13.0852468]}, "properties": {"highway": "residential", "name": "Elango Street", "name:etymology:wikidata": "Q3032538", "name:ta": "இளங்கோ தெரு"}}, {"type": "Feature", "geometry": {"type": "Point", "coordinates": [80.1943212, 13.0853679]}, "properties": {"highway": "residential", "name": "Sundharar Street", "name:etymology:wikidata": "Q3494321", "name:ta": "சுந்தரர் தெரு"}}, {"type": "Feature", "geometry": {"type": "Point", "coordinates": [80.1944137, 13.0858774]}, "properties": {"highway": "residential", "name": "Appar Street", "name:etymology:wikidata": "Q3504319", "name:ta": "அப்பர் தெரு"}}, {"type": "Feature", "geometry": {"type": "Point", "coordinates": [80.194497, 13.0863713]}, "properties": {"highway": "residential", "name": "Jegadhambigai Street", "name:ta": "ஜெகதாம்பிகை தெரு"}}, {"type": "Feature", "geometry": {"type": "Point", "coordinates": [80.1943001, 13.0852721]}, "properties": {"highway": "residential"}}, {"type": "Feature", "geometry": {"type": "Point", "coordinates": [80.1942484, 13.0848958]}, "properties": {"highway": "residential", "name": "Avvai Street", "name:ta": "ஔவை தெரு"}}, {"type": "Feature", "geometry": {"type": "Point", "coordinates": [80.194203, 13.0844472]}, "properties": {"highway": "residential", "name": "Thirugnanasambandar Street", "name:ta": "திருஞானசம்பந்தர் தெரு", "surface": "asphalt"}}, {"type": "Feature", "geometry": {"type": "Point", "coordinates": [80.1981962, 13.0848729]}, "properties": {"addr:city": "Thirumangalam, Chennai", "addr:street": "TV. Nagar", "bicycle": "yes", "foot": "yes", "highway": "residential", "maxspeed": "30", "motor_vehicle": "yes", "name": "Gandhi Main Road", "name:etymology:wikidata": "Q1001", "oneway": "no", "postal_code": "600040", "surface": "asphalt"}}, {"type": "Feature", "geometry": {"type": "Point", "coordinates": [80.1981645, 13.085394]}, "properties": {"highway": "residential"}}, {"type": "Feature", "geometry": {"type": "Point", "coordinates": [80.1974583, 13.0832432]}, "properties": {"highway": "residential", "name": "Nehru Street", "name:etymology:wikidata": "Q1047", "name:ta": "நேரு தெரு"}}, {"type": "Feature", "geometry": {"type": "Point", "coordinates": [80.1971375, 13.0845575]}, "properties": {"highway": "residential"}}, {"type": "Feature", "geometry": {"type": "Point", "coordinates": [80.1967025, 13.0856023]}, "properties": {"highway": "residential", "motor_vehicle": "no"}}, {"type": "Feature", "geometry": {"type": "Point", "coordinates": [80.1975655, 13.085211]}, "properties": {"addr:city": "Thirumangalam, Chennai", "addr:street": "Aringar Anna Street", "bicycle": "yes", "foot": "yes", "highway": "residential", "motor_vehicle": "yes", "name": "Arignar Anna Street", "name:etymology:wikidata": "Q138765", "name:ta": "அறிஞர் அண்ணா தெரு", "oneway": "no", "postal_code": "600040"}}, {"type": "Feature", "geometry": {"type": "Point", "coordinates": [80.1975568, 13.0849006]}, "properties": {"addr:city": "Thirumangalam, Chennai", "addr:street": "Thanthai Periyar Street", "bicycle": "yes", "foot": "yes", "highway": "residential", "motor_vehicle": "yes", "name": "Thanthai Periyar Street", "name:etymology:wikidata": "Q737280", "name:ta": "தந்தை பெரியார் தெரு", "oneway": "no", "postal_code": "600040"}}, {"type": "Feature", "geometry": {"type": "Point", "coordinates": [80.1975381, 13.084153]}, "properties": {"highway": "residential", "name": "Thiru Vi Ka Street", "name:etymology:wikidata": "Q7785243", "name:ta": "திரு வி கா தெரு"}}, {"type": "Feature", "geometry": {"type": "Point", "coordinates": [80.1975342, 13.0838531]}, "properties": {"highway": "residential", "name": "Dr. Ambedkar Street", "name:etymology:wikidata": "Q231690", "name:ta": "டாக்டர் அம்பேத்கர் தெரு"}}, {"type": "Feature", "geometry": {"type": "Point", "coordinates": [80.1975262, 13.0835542]}, "properties": {"highway": "residential", "name": "V. O. C. Street", "name:etymology:wikidata": "Q492527", "name:ta": "வ. உ. சி. தெரு"}}, {"type": "Feature", "geometry": {"type": "Point", "coordinates": [80.1841836, 13.0849086]}, "properties": {"highway": "tertiary", "lane_markings": "no", "lanes": "2", "name": "Seethakathi Street", "name:etymology:wikidata": "Q12978512", "parking:both": "half_on_kerb", "parking:both:orientation": "parallel", "parking:both:staggered": "yes", "surface": "asphalt"}}, {"type": "Feature", "geometry": {"type": "Point", "coordinates": [80.187718, 13.0833782]}, "properties": {"highway": "secondary", "name": "Valaiyapathy Road", "name:etymology:wikidata": "Q12988858", "surface": "asphalt"}}, {"type": "Feature", "geometry": {"type": "Point", "coordinates": [80.2082295, 13.0849794]}, "properties": {"highway": "secondary", "lane_markings": "yes", "lanes": "2", "lit": "yes", "name": "2nd Avenue, Anna Nagar West", "oneway": "yes", "parking:left": "lane", "parking:left:orientation": "parallel", "parking:right": "no", "surface": "asphalt"}}, {"type": "Feature", "geometry": {"type": "Point", "coordinates": [80.1995777, 13.0876903]}, "properties": {"highway": "residential"}}, {"type": "Feature", "geometry": {"type": "Point", "coordinates": [80.1995768, 13.0863994]}, "properties": {"highway": "residential"}}, {"type": "Feature", "geometry": {"type": "Point", "coordinates": [80.1993361, 13.0867393]}, "properties": {"highway": "residential"}}, {"type": "Feature", "geometry": {"type": "Point", "coordinates": [80.1998591, 13.0877304]}, "properties": {"highway": "residential"}}, {"type": "Feature", "geometry": {"type": "Point", "coordinates": [80.1997361, 13.0859257]}, "properties": {"highway": "residential"}}, {"type": "Feature", "geometry": {"type": "Point", "coordinates": [80.1996473, 13.0896347]}, "properties": {"highway": "residential"}}, {"type": "Feature", "geometry": {"type": "Point", "coordinates": [80.199655, 13.0897344]}, "properties": {"highway": "residential"}}, {"type": "Feature", "geometry": {"type": "Point", "coordinates": [80.190389, 13.0942169]}, "properties": {"highway": "residential", "name": "Kamarajar Street", "name:etymology:wikidata": "Q522048"}}, {"type": "Feature", "geometry": {"type": "Point", "coordinates": [80.1953376, 13.0873907]}, "properties": {"highway": "primary", "lanes": "2", "name": "Thirumangalam – Mogappair Road", "oneway": "yes", "parking:left": "lane", "parking:left:orientation": "parallel", "parking:right": "no", "ref": "SH112", "surface": "asphalt"}}, {"type": "Feature", "geometry": {"type": "Point", "coordinates": [80.1921349, 13.0875221]}, "properties": {"bridge": "yes", "highway": "primary", "layer": "1", "name": "Thirumangalam – Mogappair Road", "oneway": "yes", "ref": "SH112", "surface": "asphalt"}}, {"type": "Feature", "geometry": {"type": "Point", "coordinates": [80.1892628, 13.0919425]}, "properties": {"highway": "residential", "name": "Gandhi Street", "name:etymology:wikidata": "Q1001"}}, {"type": "Feature", "geometry": {"type": "Point", "coordinates": [80.190544, 13.0916071]}, "properties": {"highway": "residential", "lanes": "1", "maxspeed": "40", "name": "Madurai veerar street", "name:etymology:wikidata": "Q6728840", "oneway": "no", "surface": "asphalt"}}, {"type": "Feature", "geometry": {"type": "Point", "coordinates": [80.1846455, 13.0877729]}, "properties": {"highway": "primary", "lanes": "2", "lit": "yes", "maxspeed": "110", "name": "Thirumangalam – Mogappair Road", "oneway": "yes", "parking:left": "lane", "parking:left:orientation": "parallel", "parking:right": "no", "ref": "SH112", "surface": "asphalt"}}, {"type": "Feature", "geometry": {"type": "Point", "coordinates": [80.1899052, 13.0909347]}, "properties": {"highway": "residential", "name": "T.V.S. Avenue 39th Street"}}, {"type": "Feature", "geometry": {"type": "Point", "coordinates": [80.1920904, 13.0873905]}, "properties": {"bridge": "yes", "highway": "primary", "layer": "1", "name": "Thirumangalam – Mogappair Road", "oneway": "yes", "ref": "SH112", "surface": "asphalt"}}, {"type": "Feature", "geometry": {"type": "Point", "coordinates": [80.2043689, 13.082771]}, "properties": {"highway": "tertiary", "lanes": "2", "name": "4th Avenue (Santhi Colony Road)", "oneway": "yes", "parking:left": "lane", "parking:left:orientation": "parallel", "parking:right": "no", "surface": "asphalt"}}, {"type": "Feature", "geometry": {"type": "Point", "coordinates": [80.1897675, 13.093586]}, "properties": {"access": "yes", "bicycle": "yes", "cycleway": "no", "foot": "yes", "highway": "residential", "horse": "yes", "maxspeed": "15 mph", "motor_vehicle": "yes", "name": "Kambar Street", "name:etymology:wikidata": "Q1535227", "oneway": "no", "surface": "asphalt"}}, {"type": "Feature", "geometry": {"type": "Point", "coordinates": [80.1894989, 13.0931709]}, "properties": {"access": "yes", "bicycle": "yes", "cycleway": "no", "foot": "yes", "highway": "residential", "horse": "yes", "maxspeed": "30", "motor_vehicle": "yes", "name": "NSC Bose Road", "name:etymology:wikidata": "Q2153", "oneway": "no", "surface": "asphalt"}}, {"type": "Feature", "geometry": {"type": "Point", "coordinates": [80.1871469, 13.0910402]}, "properties": {"highway": "residential", "name": "T.V.S. Colony 57th Street"}}, {"type": "Feature", "geometry": {"type": "Point", "coordinates": [80.1865058, 13.0886223]}, "properties": {"highway": "residential", "name": "T.V.S. Colony 42nd Street"}}, {"type": "Feature", "geometry": {"type": "Point", "coordinates": [80.1919308, 13.0862362]}, "properties": {"highway": "residential"}}, {"type": "Feature", "geometry": {"type": "Point", "coordinates": [80.1916452, 13.0935094]}, "properties": {"highway": "residential"}}, {"type": "Feature", "geometry": {"type": "Point", "coordinates": [80.1884043, 13.0889181]}, "properties": {"highway": "residential", "name": "T.V.S. Colony 51st Street"}}, {"type": "Feature", "geometry": {"type": "Point", "coordinates": [80.1880721, 13.0831797]}, "properties": {"highway": "residential"}}, {"type": "Feature", "geometry": {"type": "Point", "coordinates": [80.1910889, 13.0816568]}, "properties": {"highway": "residential"}}, {"type": "Feature", "geometry": {"type": "Point", "coordinates": [80.1888819, 13.0917108]}, "properties": {"highway": "residential", "name": "Anna Street", "name:etymology:wikidata": "Q138765"}}, {"type": "Feature", "geometry": {"type": "Point", "coordinates": [80.1861702, 13.0892347]}, "properties": {"highway": "residential", "name": "T.V.S. Colony 43rd Street", "source": "digitalglobe"}}, {"type": "Feature", "geometry": {"type": "Point", "coordinates": [80.1917546, 13.0930221]}, "properties": {"highway": "residential"}}, {"type": "Feature", "geometry": {"type": "Point", "coordinates": [80.1869814, 13.0889826]}, "properties": {"highway": "residential", "name": "T.V.S. Colony 45th Street"}}, {"type": "Feature", "geometry": {"type": "Point", "coordinates": [80.1892606, 13.0907428]}, "properties": {"highway": "residential", "name": "T.V.S. Avenue 37th Street"}}, {"type": "Feature", "geometry": {"type": "Point", "coordinates": [80.1909467, 13.0826105]}, "properties": {"highway": "residential", "name": "Kamarajar Nagar"}}, {"type": "Feature", "geometry": {"type": "Point", "coordinates": [80.1883104, 13.0831646]}, "properties": {"highway": "residential"}}, {"type": "Feature", "geometry": {"type": "Point", "coordinates": [80.1908339, 13.0897101]}, "properties": {"highway": "residential", "maxspeed": "30", "name": "Jeevan Bhima nagar gate 1"}}, {"type": "Feature", "geometry": {"type": "Point", "coordinates": [80.1944347, 13.0939406]}, "properties": {"highway": "residential"}}, {"type": "Feature", "geometry": {"type": "Point", "coordinates": [80.1892791, 13.0910599]}, "properties": {"highway": "residential", "name": "T.V.S. Avenue 36th Street"}}, {"type": "Feature", "geometry": {"type": "Point", "coordinates": [80.1947731, 13.0940809]}, "properties": {"highway": "residential"}}, {"type": "Feature", "geometry": {"type": "Point", "coordinates": [80.1880195, 13.0820939]}, "properties": {"highway": "residential"}}, {"type": "Feature", "geometry": {"type": "Point", "coordinates": [80.1895967, 13.0922295]}, "properties": {"highway": "residential", "name": "Kambar Street", "name:etymology:wikidata": "Q1535227"}}, {"type": "Feature", "geometry": {"type": "Point", "coordinates": [80.1867439, 13.0834987]}, "properties": {"highway": "residential"}}, {"type": "Feature", "geometry": {"type": "Point", "coordinates": [80.1892431, 13.090438]}, "properties": {"highway": "residential", "name": "T.V.S. Avenue 38th Street"}}, {"type": "Feature", "geometry": {"type": "Point", "coordinates": [80.192069, 13.0869803]}, "properties": {"highway": "residential"}}, {"type": "Feature", "geometry": {"type": "Point", "coordinates": [80.1911259, 13.0826071]}, "properties": {"highway": "residential", "name": "Balaji Nagar", "surface": "asphalt"}}, {"type": "Feature", "geometry": {"type": "Point", "coordinates": [80.1867209, 13.0848494]}, "properties": {"highway": "residential"}}, {"type": "Feature", "geometry": {"type": "Point", "coordinates": [80.1884357, 13.0895297]}, "properties": {"highway": "residential", "name": "T.V.S. Colony 53rd Street"}}, {"type": "Feature", "geometry": {"type": "Point", "coordinates": [80.1880795, 13.0832803]}, "properties": {"highway": "residential"}}, {"type": "Feature", "geometry": {"type": "Point", "coordinates": [80.1880184, 13.0920262]}, "properties": {"highway": "residential"}}, {"type": "Feature", "geometry": {"type": "Point", "coordinates": [80.1877923, 13.0911578]}, "properties": {"highway": "residential", "name": "Bharathiyar Street", "name:etymology:wikidata": "Q256286"}}, {"type": "Feature", "geometry": {"type": "Point", "coordinates": [80.1879591, 13.0841471]}, "properties": {"highway": "residential"}}, {"type": "Feature", "geometry": {"type": "Point", "coordinates": [80.1899869, 13.0805572]}, "properties": {"highway": "residential"}}, {"type": "Feature", "geometry": {"type": "Point", "coordinates": [80.187742, 13.0907889]}, "properties": {"highway": "residential", "name": "Jawahar Street"}}, {"type": "Feature", "geometry": {"type": "Point", "coordinates": [80.1870678, 13.0820654]}, "properties": {"highway": "residential"}}, {"type": "Feature", "geometry": {"type": "Point", "coordinates": [80.1863733, 13.0894197]}, "properties": {"highway": "residential", "name": "T.V.S. Colony 44th Street"}}, {"type": "Feature", "geometry": {"type": "Point", "coordinates": [80.187884, 13.0922526]}, "properties": {"highway": "residential", "name": "Thiruvalluvar Street", "name:etymology:wikidata": "Q2353373"}}, {"type": "Feature", "geometry": {"type": "Point", "coordinates": [80.1870785, 13.0820558]}, "properties": {"highway": "residential"}}, {"type": "Feature", "geometry": {"type": "Point", "coordinates": [80.1877062, 13.0905069]}, "properties": {"highway": "residential", "name": "V. O. C. Street", "name:etymology:wikidata": "Q492527"}}, {"type": "Feature", "geometry": {"type": "Point", "coordinates": [80.187903, 13.0892063]}, "properties": {"highway": "residential", "name": "T.V.S. Colony 52nd Street"}}, {"type": "Feature", "geometry": {"type": "Point", "coordinates": [80.1879403, 13.0926885]}, "properties": {"highway": "residential", "name": "Raja Raja Cholan Street", "name:etymology:wikidata": "Q2128757"}}, {"type": "Feature", "geometry": {"type": "Point", "coordinates": [80.1878342, 13.0914616]}, "properties": {"highway": "residential", "name": "Ambedkar Street", "name:etymology:wikidata": "Q231690"}}, {"type": "Feature", "geometry": {"type": "Point", "coordinates": [80.1918321, 13.0922833]}, "properties": {"highway": "residential"}}, {"type": "Feature", "geometry": {"type": "Point", "coordinates": [80.1886222, 13.0907618]}, "properties": {"highway": "residential", "name": "T.V.S. Avenue 34th Street"}}, {"type": "Feature", "geometry": {"type": "Point", "coordinates": [80.1908079, 13.0936499]}, "properties": {"highway": "residential"}}, {"type": "Feature", "geometry": {"type": "Point", "coordinates": [80.1880853, 13.0819643]}, "properties": {"highway": "residential"}}, {"type": "Feature", "geometry": {"type": "Point", "coordinates": [80.1867058, 13.0837034]}, "properties": {"highway": "residential"}}, {"type": "Feature", "geometry": {"type": "Point", "coordinates": [80.1908341, 13.0942323]}, "properties": {"highway": "residential"}}, {"type": "Feature", "geometry": {"type": "Point", "coordinates": [80.1867339, 13.0908925]}, "properties": {"highway": "residential", "name": "T.V.S. Colony 58th Street"}}, {"type": "Feature", "geometry": {"type": "Point", "coordinates": [80.1932038, 13.0797024]}, "properties": {"highway": "residential"}}, {"type": "Feature", "geometry": {"type": "Point", "coordinates": [80.1978785, 13.0887102]}, "properties": {"access": "private", "highway": "residential"}}, {"type": "Feature", "geometry": {"type": "Point", "coordinates": [80.1979971, 13.0897921]}, "properties": {"highway": "residential"}}, {"type": "Feature", "geometry": {"type": "Point", "coordinates": [80.1978903, 13.0892986]}, "properties": {"highway": "residential"}}, {"type": "Feature", "geometry": {"type": "Point", "coordinates": [80.1979253, 13.0903012]}, "properties": {"highway": "residential"}}, {"type": "Feature", "geometry": {"type": "Point", "coordinates": [80.1906477, 13.0862572]}, "properties": {"highway": "residential", "name": "Karumari Amman Kovil Street"}}, {"type": "Feature", "geometry": {"type": "Point", "coordinates": [80.1906898, 13.0864276]}, "properties": {"highway": "residential", "name": "Ambedkar Street", "name:etymology:wikidata": "Q231690"}}, {"type": "Feature", "geometry": {"type": "Point", "coordinates": [80.1976231, 13.0846766]}, "properties": {"highway": "residential"}}, {"type": "Feature", "geometry": {"type": "Point", "coordinates": [80.190572, 13.0867703]}, "properties": {"highway": "residential"}}, {"type": "Feature", "geometry": {"type": "Point", "coordinates": [80.1883017, 13.0848427]}, "properties": {"highway": "residential"}}, {"type": "Feature", "geometry": {"type": "Point", "coordinates": [80.1880933, 13.0848113]}, "properties": {"highway": "residential"}}, {"type": "Feature", "geometry": {"type": "Point", "coordinates": [80.1868324, 13.0870586]}, "properties": {"highway": "residential", "surface": "asphalt"}}, {"type": "Feature", "geometry": {"type": "Point", "coordinates": [80.1975477, 13.0844543]}, "properties": {"highway": "residential"}}, {"type": "Feature", "geometry": {"type": "Point", "coordinates": [80.1883891, 13.0841971]}, "properties": {"highway": "residential"}}, {"type": "Feature", "geometry": {"type": "Point", "coordinates": [80.1881662, 13.084158]}, "properties": {"highway": "residential"}}, {"type": "Feature", "geometry": {"type": "Point", "coordinates": [80.1921226, 13.0918957]}, "properties": {"access": "private", "highway": "residential"}}, {"type": "Feature", "geometry": {"type": "Point", "coordinates": [80.1922631, 13.0828645]}, "properties": {"highway": "residential", "name": "South Park Road", "oneway": "no", "surface": "asphalt"}}, {"type": "Feature", "geometry": {"type": "Point", "coordinates": [80.1930421, 13.0836094]}, "properties": {"highway": "residential"}}, {"type": "Feature", "geometry": {"type": "Point", "coordinates": [80.1930456, 13.083143]}, "properties": {"highway": "residential"}}, {"type": "Feature", "geometry": {"type": "Point", "coordinates": [80.1945331, 13.0870381]}, "properties": {"access": "private", "highway": "residential"}}, {"type": "Feature", "geometry": {"type": "Point", "coordinates": [80.192799, 13.0824803]}, "properties": {"highway": "residential"}}, {"type": "Feature", "geometry": {"type": "Point", "coordinates": [80.1923006, 13.0822473]}, "properties": {"highway": "residential"}}, {"type": "Feature", "geometry": {"type": "Point", "coordinates": [80.1933907, 13.0833754]}, "properties": {"highway": "residential"}}, {"type": "Feature", "geometry": {"type": "Point", "coordinates": [80.1933666, 13.0837631]}, "properties": {"highway": "residential"}}, {"type": "Feature", "geometry": {"type": "Point", "coordinates": [80.1927716, 13.0830804]}, "properties": {"highway": "residential"}}, {"type": "Feature", "geometry": {"type": "Point", "coordinates": [80.1930921, 13.0840695]}, "properties": {"highway": "residential", "name": "Annai Flats", "surface": "asphalt"}}, {"type": "Feature", "geometry": {"type": "Point", "coordinates": [80.1994905, 13.0837437]}, "properties": {"highway": "residential"}}, {"type": "Feature", "geometry": {"type": "Point", "coordinates": [80.1871133, 13.0845894]}, "properties": {"highway": "residential"}}, {"type": "Feature", "geometry": {"type": "Point", "coordinates": [80.1868276, 13.082881]}, "properties": {"highway": "residential"}}, {"type": "Feature", "geometry": {"type": "Point", "coordinates": [80.1872728, 13.0833508]}, "properties": {"highway": "residential"}}, {"type": "Feature", "geometry": {"type": "Point", "coordinates": [80.1913826, 13.0914751]}, "properties": {"highway": "residential", "maxspeed": "30", "name": "Jeevan bhima nagar"}}, {"type": "Feature", "geometry": {"type": "Point", "coordinates": [80.1911132, 13.091626]}, "properties": {"highway": "residential", "maxspeed": "30", "name": "Jeevan bhima nagar gate 4"}}, {"type": "Feature", "geometry": {"type": "Point", "coordinates": [80.1911909, 13.0912203]}, "properties": {"highway": "residential", "name": "Jeevan Bhima nagar gate 3"}}, {"type": "Feature", "geometry": {"type": "Point", "coordinates": [80.1972513, 13.0841136]}, "properties": {"highway": "residential", "oneway": "no", "surface": "asphalt"}}, {"type": "Feature", "geometry": {"type": "Point", "coordinates": [80.1963751, 13.0834616]}, "properties": {"highway": "residential", "oneway": "no"}}, {"type": "Feature", "geometry": {"type": "Point", "coordinates": [80.198216, 13.0841652]}, "properties": {"highway": "residential"}}, {"type": "Feature", "geometry": {"type": "Point", "coordinates": [80.2057908, 13.0851269]}, "properties": {"highway": "secondary", "lanes": "2", "name": "2nd Avenue, Anna Nagar West", "oneway": "yes", "parking:left": "lane", "parking:left:orientation": "parallel", "parking:right": "no", "surface": "asphalt"}}, {"type": "Feature", "geometry": {"type": "Point", "coordinates": [80.1985207, 13.083605]}, "properties": {"embankment": "yes", "highway": "primary", "lanes": "2", "name": "Thirumangalam Flyover", "name:etymology:wikidata": "Q7785335", "official_name": "Inner Ring Road", "oneway": "yes", "parking:both": "no", "ref": "SH2", "surface": "asphalt"}}, {"type": "Feature", "geometry": {"type": "Point", "coordinates": [80.1986379, 13.0893416]}, "properties": {"embankment": "yes", "highway": "primary", "name": "Thirumangalam Flyover", "name:etymology:wikidata": "Q7785335", "official_name": "Inner Ring Road", "oneway": "yes", "ref": "SH2", "surface": "asphalt"}}, {"type": "Feature", "geometry": {"type": "Point", "coordinates": [80.1985672, 13.0853544]}, "properties": {"access": "yes", "bicycle": "yes", "foot": "yes", "highway": "secondary", "lane_markings": "no", "lanes": "2", "motor_vehicle": "yes", "name": "2nd Avenue Anna Nagar", "oneway": "yes", "parking:both": "no", "surface": "asphalt"}}, {"type": "Feature", "geometry": {"type": "Point", "coordinates": [80.1912148, 13.083504]}, "properties": {"highway": "tertiary", "lanes": "1", "name": "Padikuppam Road", "oneway": "no", "surface": "asphalt"}}, {"type": "Feature", "geometry": {"type": "Point", "coordinates": [80.1986105, 13.086659]}, "properties": {"bridge": "yes", "highway": "primary", "layer": "1", "name": "Thirumangalam Flyover", "name:etymology:wikidata": "Q7785335", "official_name": "Inner Ring Road", "oneway": "yes", "parking:both": "no", "ref": "SH2", "surface": "asphalt"}}, {"type": "Feature", "geometry": {"type": "Point", "coordinates": [80.1985432, 13.0866616]}, "properties": {"bridge": "yes", "highway": "primary", "layer": "1", "name": "Thirumangalam Flyover", "name:etymology:wikidata": "Q7785335", "official_name": "Inner Ring Road", "oneway": "yes", "parking:both": "no", "ref": "SH2", "surface": "asphalt"}}, {"type": "Feature", "geometry": {"type": "Point", "coordinates": [80.1986847, 13.0887276]}, "properties": {"highway": "primary", "motorroad": "no", "name": "Jawaharlal Nehru Road (100 Feet Road)", "name:etymology:wikidata": "Q1047", "name:ta": "ஜவகர்லால் நேரு சாலை (100 அடி சாலை)", "oneway": "yes", "ref": "IRR"}}, {"type": "Feature", "geometry": {"type": "Point", "coordinates": [80.1984978, 13.0916157]}, "properties": {"highway": "primary", "motorroad": "no", "name": "Jawaharlal Nehru Road (100 Feet Road)", "name:etymology:wikidata": "Q1047", "name:ta": "ஜவகர்லால் நேரு சாலை (100 அடி சாலை)", "official_name": "Inner Ring Road", "oneway": "yes", "ref": "SH2"}}, {"type": "Feature", "geometry": {"type": "Point", "coordinates": [80.1985913, 13.0836183]}, "properties": {"embankment": "yes", "highway": "primary", "lanes": "2", "name": "Thirumangalam Flyover", "name:etymology:wikidata": "Q7785335", "official_name": "Inner Ring Road", "oneway": "yes", "parking:both": "no", "ref": "SH2", "surface": "asphalt"}}, {"type": "Feature", "geometry": {"type": "Point", "coordinates": [80.1985528, 13.089348]}, "properties": {"embankment": "yes", "highway": "primary", "name": "Thirumangalam Flyover", "name:etymology:wikidata": "Q7785335", "official_name": "Inner Ring Road", "oneway": "yes", "ref": "SH2", "surface": "asphalt"}}, {"type": "Feature", "geometry": {"type": "Point", "coordinates": [80.1940793, 13.0818936]}, "properties": {"highway": "residential"}}, {"type": "Feature", "geometry": {"type": "Point", "coordinates": [80.1965743, 13.0823327]}, "properties": {"access": "destination", "highway": "residential"}}, {"type": "Feature", "geometry": {"type": "Point", "coordinates": [80.1987211, 13.0916064]}, "properties": {"highway": "primary", "motorroad": "no", "name": "Jawaharlal Nehru Road (100 Feet Road)", "name:etymology:wikidata": "Q1047", "name:ta": "ஜவகர்லால் நேரு சாலை (100 அடி சாலை)", "official_name": "Inner Ring Road", "oneway": "yes", "ref": "SH2"}}, {"type": "Feature", "geometry": {"type": "Point", "coordinates": [80.1978457, 13.0821564]}, "properties": {"highway": "residential"}}, {"type": "Feature", "geometry": {"type": "Point", "coordinates": [80.1982369, 13.0862422]}, "properties": {"highway": "residential"}}, {"type": "Feature", "geometry": {"type": "Point", "coordinates": [80.1964972, 13.0842312]}, "properties": {"highway": "residential"}}, {"type": "Feature", "geometry": {"type": "Point", "coordinates": [80.1947846, 13.0839896]}, "properties": {"highway": "residential"}}, {"type": "Feature", "geometry": {"type": "Point", "coordinates": [80.1962581, 13.08634]}, "properties": {"highway": "residential", "source": "digitalglobe"}}, {"type": "Feature", "geometry": {"type": "Point", "coordinates": [80.1955673, 13.0872909]}, "properties": {"highway": "residential"}}, {"type": "Feature", "geometry": {"type": "Point", "coordinates": [80.1961537, 13.0874265]}, "properties": {"highway": "residential", "surface": "asphalt"}}, {"type": "Feature", "geometry": {"type": "Point", "coordinates": [80.1950304, 13.0873032]}, "properties": {"highway": "residential"}}, {"type": "Feature", "geometry": {"type": "Point", "coordinates": [80.1939704, 13.0878778]}, "properties": {"highway": "residential"}}, {"type": "Feature", "geometry": {"type": "Point", "coordinates": [80.1961134, 13.0880358]}, "properties": {"highway": "residential"}}, {"type": "Feature", "geometry": {"type": "Point", "coordinates": [80.1979262, 13.0881763]}, "properties": {"access": "private", "highway": "residential"}}, {"type": "Feature", "geometry": {"type": "Point", "coordinates": [80.1979499, 13.0918083]}, "properties": {"access": "private", "highway": "residential"}}, {"type": "Feature", "geometry": {"type": "Point", "coordinates": [80.1905989, 13.0818092]}, "properties": {"highway": "residential"}}, {"type": "Feature", "geometry": {"type": "Point", "coordinates": [80.1904031, 13.0818724]}, "properties": {"highway": "residential"}}, {"type": "Feature", "geometry": {"type": "Point", "coordinates": [80.1880796, 13.0878404]}, "properties": {"highway": "secondary", "surface": "asphalt"}}, {"type": "Feature", "geometry": {"type": "Point", "coordinates": [80.1914515, 13.0828909]}, "properties": {"access": "private", "highway": "residential"}}, {"type": "Feature", "geometry": {"type": "Point", "coordinates": [80.1916618, 13.0831808]}, "properties": {"access": "private", "highway": "residential", "source": "digitalglobe"}}, {"type": "Feature", "geometry": {"type": "Point", "coordinates": [80.1952527, 13.093356]}, "properties": {"highway": "residential"}}, {"type": "Feature", "geometry": {"type": "Point", "coordinates": [80.1968245, 13.0920389]}, "properties": {"highway": "residential"}}, {"type": "Feature", "geometry": {"type": "Point", "coordinates": [80.1932871, 13.0906084]}, "properties": {"highway": "residential"}}, {"type": "Feature", "geometry": {"type": "Point", "coordinates": [80.1915225, 13.089148]}, "properties": {"highway": "residential"}}, {"type": "Feature", "geometry": {"type": "Point", "coordinates": [80.1908827, 13.0880567]}, "properties": {"highway": "residential"}}, {"type": "Feature", "geometry": {"type": "Point", "coordinates": [80.1908068, 13.0888601]}, "properties": {"highway": "residential"}}, {"type": "Feature", "geometry": {"type": "Point", "coordinates": [80.1946837, 13.0885151]}, "properties": {"highway": "residential", "maxspeed": "40", "name": "Welcome Colony 3rd Stree,"}}, {"type": "Feature", "geometry": {"type": "Point", "coordinates": [80.1953178, 13.0819476]}, "properties": {"highway": "residential"}}, {"type": "Feature", "geometry": {"type": "Point", "coordinates": [80.1948906, 13.0887386]}, "properties": {"highway": "residential"}}, {"type": "Feature", "geometry": {"type": "Point", "coordinates": [80.1941595, 13.0838645]}, "properties": {"highway": "residential"}}, {"type": "Feature", "geometry": {"type": "Point", "coordinates": [80.1992061, 13.0851116]}, "properties": {"highway": "residential"}}, {"type": "Feature", "geometry": {"type": "Point", "coordinates": [80.1995446, 13.0870728]}, "properties": {"highway": "residential", "name": "15th Main Road", "oneway": "yes"}}, {"type": "Feature", "geometry": {"type": "Point", "coordinates": [80.2043664, 13.0826941]}, "properties": {"highway": "tertiary", "lanes": "2", "name": "4th Avenue (Santhi Colony Road)", "oneway": "yes", "parking:left": "lane", "parking:left:orientation": "parallel", "parking:right": "no", "surface": "asphalt"}}, {"type": "Feature", "geometry": {"type": "Point", "coordinates": [80.1937726, 13.0800158]}, "properties": {"highway": "residential"}}, {"type": "Feature", "geometry": {"type": "Point", "coordinates": [80.1912471, 13.0941577]}, "properties": {"highway": "residential"}}, {"type": "Feature", "geometry": {"type": "Point", "coordinates": [80.199056, 13.0900653]}, "properties": {"highway": "residential"}}, {"type": "Feature", "geometry": {"type": "Point", "coordinates": [80.1910989, 13.0806213]}, "properties": {"access": "private", "highway": "residential", "source": "digitalglobe"}}, {"type": "Feature", "geometry": {"type": "Point", "coordinates": [80.1905716, 13.0799721]}, "properties": {"access": "private", "highway": "residential", "source": "digitalglobe"}}, {"type": "Feature", "geometry": {"type": "Point", "coordinates": [80.1892071, 13.0826802]}, "properties": {"highway": "residential", "source": "digitalglobe"}}, {"type": "Feature", "geometry": {"type": "Point", "coordinates": [80.1881138, 13.0828308]}, "properties": {"highway": "residential", "source": "digitalglobe"}}, {"type": "Feature", "geometry": {"type": "Point", "coordinates": [80.1931292, 13.0820065]}, "properties": {"highway": "residential", "source": "digitalglobe"}}, {"type": "Feature", "geometry": {"type": "Point", "coordinates": [80.1915745, 13.0841529]}, "properties": {"access": "private", "highway": "residential", "source": "digitalglobe"}}, {"type": "Feature", "geometry": {"type": "Point", "coordinates": [80.1957199, 13.0840374]}, "properties": {"highway": "residential", "source": "digitalglobe"}}, {"type": "Feature", "geometry": {"type": "Point", "coordinates": [80.1956781, 13.0830221]}, "properties": {"highway": "residential", "source": "digitalglobe"}}, {"type": "Feature", "geometry": {"type": "Point", "coordinates": [80.1858132, 13.0847743]}, "properties": {"highway": "residential", "source": "digitalglobe"}}, {"type": "Feature", "geometry": {"type": "Point", "coordinates": [80.1862367, 13.0846744]}, "properties": {"highway": "residential", "source": "digitalglobe"}}, {"type": "Feature", "geometry": {"type": "Point", "coordinates": [80.1888055, 13.0857844]}, "properties": {"highway": "residential", "source": "digitalglobe"}}, {"type": "Feature", "geometry": {"type": "Point", "coordinates": [80.1906075, 13.0861193]}, "properties": {"highway": "residential", "source": "digitalglobe"}}, {"type": "Feature", "geometry": {"type": "Point", "coordinates": [80.191368, 13.0850317]}, "properties": {"highway": "residential", "source": "digitalglobe"}}, {"type": "Feature", "geometry": {"type": "Point", "coordinates": [80.1918859, 13.0848529]}, "properties": {"highway": "residential", "source": "digitalglobe"}}, {"type": "Feature", "geometry": {"type": "Point", "coordinates": [80.1968371, 13.0854054]}, "properties": {"access": "private", "highway": "residential", "source": "digitalglobe"}}, {"type": "Feature", "geometry": {"type": "Point", "coordinates": [80.1964799, 13.0881204]}, "properties": {"highway": "residential", "source": "digitalglobe"}}, {"type": "Feature", "geometry": {"type": "Point", "coordinates": [80.1952857, 13.0884345]}, "properties": {"highway": "residential", "source": "digitalglobe"}}, {"type": "Feature", "geometry": {"type": "Point", "coordinates": [80.1944827, 13.088529]}, "properties": {"highway": "residential", "source": "digitalglobe"}}, {"type": "Feature", "geometry": {"type": "Point", "coordinates": [80.196748, 13.0887469]}, "properties": {"highway": "residential", "source": "digitalglobe"}}, {"type": "Feature", "geometry": {"type": "Point", "coordinates": [80.1967336, 13.0900781]}, "properties": {"highway": "residential", "source": "digitalglobe"}}, {"type": "Feature", "geometry": {"type": "Point", "coordinates": [80.1959363, 13.0900831]}, "properties": {"highway": "residential", "source": "digitalglobe"}}, {"type": "Feature", "geometry": {"type": "Point", "coordinates": [80.1902697, 13.0923134]}, "properties": {"highway": "residential", "source": "digitalglobe"}}, {"type": "Feature", "geometry": {"type": "Point", "coordinates": [80.1891756, 13.093646]}, "properties": {"highway": "residential", "name": "Lokmanya Tilagar Street", "name:etymology:wikidata": "Q312555", "source": "digitalglobe"}}, {"type": "Feature", "geometry": {"type": "Point", "coordinates": [80.1862353, 13.0844596]}, "properties": {"highway": "residential", "source": "digitalglobe"}}, {"type": "Feature", "geometry": {"type": "Point", "coordinates": [80.1916754, 13.0833315]}, "properties": {"access": "private", "highway": "residential", "source": "digitalglobe"}}, {"type": "Feature", "geometry": {"type": "Point", "coordinates": [80.1880528, 13.0834341]}, "properties": {"highway": "residential", "source": "digitalglobe"}}, {"type": "Feature", "geometry": {"type": "Point", "coordinates": [80.1867611, 13.0845197]}, "properties": {"highway": "residential", "source": "digitalglobe"}}, {"type": "Feature", "geometry": {"type": "Point", "coordinates": [80.1926654, 13.0931659]}, "properties": {"access": "private", "highway": "residential", "source": "digitalglobe"}}, {"type": "Feature", "geometry": {"type": "Point", "coordinates": [80.1927132, 13.0912085]}, "properties": {"access": "private", "highway": "residential", "source": "digitalglobe"}}, {"type": "Feature", "geometry": {"type": "Point", "coordinates": [80.1926797, 13.0906438]}, "properties": {"access": "private", "highway": "residential", "source": "digitalglobe"}}, {"type": "Feature", "geometry": {"type": "Point", "coordinates": [80.1924892, 13.0892659]}, "properties": {"access": "private", "highway": "residential", "source": "digitalglobe"}}, {"type": "Feature", "geometry": {"type": "Point", "coordinates": [80.1924618, 13.0924184]}, "properties": {"access": "private", "highway": "residential", "source": "digitalglobe"}}, {"type": "Feature", "geometry": {"type": "Point", "coordinates": [80.1964857, 13.0888319]}, "properties": {"highway": "residential", "source": "digitalglobe"}}, {"type": "Feature", "geometry": {"type": "Point", "coordinates": [80.1957094, 13.0878786]}, "properties": {"highway": "residential", "source": "digitalglobe"}}, {"type": "Feature", "geometry": {"type": "Point", "coordinates": [80.1969112, 13.086748]}, "properties": {"highway": "residential", "source": "digitalglobe"}}, {"type": "Feature", "geometry": {"type": "Point", "coordinates": [80.1892406, 13.0892706]}, "properties": {"highway": "residential", "name": "T.V.S. Colony 54th Street"}}, {"type": "Feature", "geometry": {"type": "Point", "coordinates": [80.1894559, 13.0884639]}, "properties": {"highway": "residential", "source": "digitalglobe"}}, {"type": "Feature", "geometry": {"type": "Point", "coordinates": [80.1908588, 13.0907146]}, "properties": {"highway": "residential", "source": "digitalglobe"}}, {"type": "Feature", "geometry": {"type": "Point", "coordinates": [80.1866208, 13.089242]}, "properties": {"highway": "residential", "name": "T.V.S. Colony 46th Street", "source": "digitalglobe"}}, {"type": "Feature", "geometry": {"type": "Point", "coordinates": [80.1897189, 13.0925556]}, "properties": {"highway": "residential", "name": "Kattabomman Street", "name:etymology:wikidata": "Q888293", "source": "digitalglobe"}}, {"type": "Feature", "geometry": {"type": "Point", "coordinates": [80.1957876, 13.0940471]}, "properties": {"highway": "residential", "source": "digitalglobe"}}, {"type": "Feature", "geometry": {"type": "Point", "coordinates": [80.1934289, 13.0941221]}, "properties": {"highway": "residential", "source": "digitalglobe"}}, {"type": "Feature", "geometry": {"type": "Point", "coordinates": [80.1926184, 13.0801074]}, "properties": {"highway": "residential", "source": "digitalglobe"}}, {"type": "Feature", "geometry": {"type": "Point", "coordinates": [80.1925437, 13.0797953]}, "properties": {"highway": "residential", "source": "digitalglobe"}}, {"type": "Feature", "geometry": {"type": "Point", "coordinates": [80.1924429, 13.0795989]}, "properties": {"highway": "residential", "source": "digitalglobe"}}, {"type": "Feature", "geometry": {"type": "Point", "coordinates": [80.1947168, 13.0805554]}, "properties": {"highway": "residential"}}, {"type": "Feature", "geometry": {"type": "Point", "coordinates": [80.1883999, 13.0885179]}, "properties": {"highway": "residential", "name": "T.V.S. Colony 50th Street"}}, {"type": "Feature", "geometry": {"type": "Point", "coordinates": [80.1845957, 13.087901]}, "properties": {"highway": "primary", "lanes": "2", "lit": "yes", "name": "Thirumangalam – Mogappair Road", "oneway": "yes", "parking:left": "lane", "parking:left:orientation": "parallel", "parking:right": "no", "ref": "SH112", "surface": "asphalt"}}, {"type": "Feature", "geometry": {"type": "Point", "coordinates": [80.1986687, 13.086222]}, "properties": {"highway": "primary", "motorroad": "no", "name": "Jawaharlal Nehru Road (100 Feet Road)", "name:etymology:wikidata": "Q1047", "name:ta": "ஜவகர்லால் நேரு சாலை (100 அடி சாலை)", "oneway": "yes", "ref": "IRR"}}, {"type": "Feature", "geometry": {"type": "Point", "coordinates": [80.1984671, 13.0862405]}, "properties": {"highway": "primary", "lanes": "3", "motorroad": "no", "name": "Jawaharlal Nehru Road (100 Feet Road)", "name:etymology:wikidata": "Q1047", "name:ta": "ஜவகர்லால் நேரு சாலை (100 அடி சாலை)", "oneway": "yes", "parking:both": "no", "ref": "IRR", "surface": "asphalt"}}, {"type": "Feature", "geometry": {"type": "Point", "coordinates": [80.1984603, 13.087386]}, "properties": {"highway": "primary", "motorroad": "no", "name": "Jawaharlal Nehru Road (100 Feet Road)", "name:etymology:wikidata": "Q1047", "name:ta": "ஜவகர்லால் நேரு சாலை (100 அடி சாலை)", "oneway": "yes", "parking:left": "lane", "parking:left:orientation": "parallel", "parking:right": "no", "ref": "IRR"}}, {"type": "Feature", "geometry": {"type": "Point", "coordinates": [80.1857112, 13.0863389]}, "properties": {"highway": "residential", "source": "maxar"}}, {"type": "Feature", "geometry": {"type": "Point", "coordinates": [80.1975809, 13.0858798]}, "properties": {"highway": "residential", "source": "maxar"}}, {"type": "Feature", "geometry": {"type": "Point", "coordinates": [80.1970541, 13.0848998]}, "properties": {"highway": "residential", "source": "maxar"}}, {"type": "Feature", "geometry": {"type": "Point", "coordinates": [80.1970759, 13.0814563]}, "properties": {"highway": "residential"}}, {"type": "Feature", "geometry": {"type": "Point", "coordinates": [80.1956732, 13.0828113]}, "properties": {"highway": "residential"}}, {"type": "Feature", "geometry": {"type": "Point", "coordinates": [80.1967714, 13.0824915]}, "properties": {"highway": "residential"}}, {"type": "Feature", "geometry": {"type": "Point", "coordinates": [80.1920188, 13.0882498]}, "properties": {"highway": "residential"}}, {"type": "Feature", "geometry": {"type": "Point", "coordinates": [80.1920406, 13.0888365]}, "properties": {"highway": "residential"}}, {"type": "Feature", "geometry": {"type": "Point", "coordinates": [80.1985594, 13.0847224]}, "properties": {"highway": "primary", "oneway": "yes"}}, {"type": "Feature", "geometry": {"type": "Point", "coordinates": [80.1939527, 13.0874894]}, "properties": {"highway": "residential", "surface": "asphalt"}}, {"type": "Feature", "geometry": {"type": "Point", "coordinates": [80.1946685, 13.0874346]}, "properties": {"highway": "residential", "surface": "asphalt"}}, {"type": "Feature", "geometry": {"type": "Point", "coordinates": [80.1932419, 13.095675]}, "properties": {"highway": "tertiary", "lanes": "1", "name": "Park Road", "oneway": "yes", "surface": "asphalt"}}, {"type": "Feature", "geometry": {"type": "Point", "coordinates": [80.1928759, 13.0891744]}, "properties": {"highway": "tertiary", "lanes": "2", "name": "Park Road", "name:ta": "பூங்கா சாலை", "surface": "asphalt"}}, {"type": "Feature", "geometry": {"type": "Point", "coordinates": [80.1913479, 13.0886095]}, "properties": {"highway": "residential"}}, {"type": "Feature", "geometry": {"type": "Point", "coordinates": [80.1905817, 13.0912045]}, "properties": {"highway": "residential", "motor_vehicle": "permissive", "name": "Jeevan Bhima nagar gate 3"}}, {"type": "Feature", "geometry": {"type": "Point", "coordinates": [80.1908047, 13.0929667]}, "properties": {"highway": "residential", "maxspeed": "30", "motor_vehicle": "permissive", "name": "Jeevan bhima nagar"}}, {"type": "Feature", "geometry": {"type": "Point", "coordinates": [80.1890581, 13.0924515]}, "properties": {"highway": "residential", "source": "digitalglobe"}}, {"type": "Feature", "geometry": {"type": "Point", "coordinates": [80.1857813, 13.085886]}, "properties": {"highway": "residential"}}, {"type": "Feature", "geometry": {"type": "Point", "coordinates": [80.1915046, 13.0932263]}, "properties": {"highway": "residential"}}, {"type": "Feature", "geometry": {"type": "Point", "coordinates": [80.1922594, 13.0859465]}, "properties": {"highway": "residential"}}, {"type": "Feature", "geometry": {"type": "Point", "coordinates": [80.1970366, 13.0836042]}, "properties": {"highway": "residential", "source": "digitalglobe"}}, {"type": "Feature", "geometry": {"type": "Point", "coordinates": [80.1913291, 13.0942478]}, "properties": {"highway": "residential", "lanes": "1", "maxspeed": "40", "name": "Madurai veerar street", "name:etymology:wikidata": "Q6728840", "oneway": "no"}}, {"type": "Feature", "geometry": {"type": "Point", "coordinates": [80.1944496, 13.087041]}, "properties": {"access": "private", "highway": "residential"}}, {"type": "Feature", "geometry": {"type": "Point", "coordinates": [80.1955156, 13.0870378]}, "properties": {"access": "private", "highway": "residential"}}, {"type": "Feature", "geometry": {"type": "Point", "coordinates": [80.1959155, 13.0887645]}, "properties": {"highway": "residential"}}, {"type": "Feature", "geometry": {"type": "Point", "coordinates": [80.1957849, 13.08507]}, "properties": {"highway": "residential"}}, {"type": "Feature", "geometry": {"type": "Point", "coordinates": [80.1985693, 13.0872612]}, "properties": {"highway": "primary", "name": "Thirumangalam – Mogappair Road", "oneway": "yes", "ref": "SH112", "surface": "asphalt"}}, {"type": "Feature", "geometry": {"type": "Point", "coordinates": [80.1984534, 13.0871863]}, "properties": {"highway": "primary", "lanes": "3", "motorroad": "no", "name": "Jawaharlal Nehru Road (100 Feet Road)", "name:etymology:wikidata": "Q1047", "name:ta": "ஜவகர்லால் நேரு சாலை (100 அடி சாலை)", "oneway": "yes", "parking:both": "no", "ref": "IRR", "surface": "asphalt"}}, {"type": "Feature", "geometry": {"type": "Point", "coordinates": [80.1986863, 13.0871831]}, "properties": {"highway": "primary", "motorroad": "no", "name": "Jawaharlal Nehru Road (100 Feet Road)", "name:etymology:wikidata": "Q1047", "name:ta": "ஜவகர்லால் நேரு சாலை (100 அடி சாலை)", "oneway": "yes", "ref": "IRR"}}, {"type": "Feature", "geometry": {"type": "Point", "coordinates": [80.1866952, 13.0842241]}, "properties": {"highway": "residential"}}, {"type": "Feature", "geometry": {"type": "Point", "coordinates": [80.1927433, 13.0909241]}, "properties": {"access": "private", "highway": "residential"}}, {"type": "Feature", "geometry": {"type": "Point", "coordinates": [80.1979858, 13.0918092]}, "properties": {"access": "private", "highway": "residential"}}, {"type": "Feature", "geometry": {"type": "Point", "coordinates": [80.1977787, 13.0918181]}, "properties": {"access": "private", "highway": "residential"}}, {"type": "Feature", "geometry": {"type": "Point", "coordinates": [80.1905022, 13.0886973]}, "properties": {"highway": "residential"}}, {"type": "Feature", "geometry": {"type": "Point", "coordinates": [80.1948718, 13.0883338]}, "properties": {"highway": "residential"}}, {"type": "Feature", "geometry": {"type": "Point", "coordinates": [80.1970719, 13.0889253]}, "properties": {"access": "private", "highway": "residential"}}, {"type": "Feature", "geometry": {"type": "Point", "coordinates": [80.1976076, 13.0883135]}, "properties": {"access": "private", "highway": "residential"}}, {"type": "Feature", "geometry": {"type": "Point", "coordinates": [80.1976738, 13.0900007]}, "properties": {"highway": "residential"}}, {"type": "Feature", "geometry": {"type": "Point", "coordinates": [80.1964926, 13.0881139]}, "properties": {"highway": "residential"}}, {"type": "Feature", "geometry": {"type": "Point", "coordinates": [80.1964904, 13.088609]}, "properties": {"highway": "residential"}}, {"type": "Feature", "geometry": {"type": "Point", "coordinates": [80.1976599, 13.089659]}, "properties": {"highway": "residential"}}, {"type": "Feature", "geometry": {"type": "Point", "coordinates": [80.1919113, 13.0849895]}, "properties": {"highway": "residential"}}, {"type": "Feature", "geometry": {"type": "Point", "coordinates": [80.1986158, 13.0827193]}, "properties": {"highway": "primary", "motorroad": "no", "name": "Jawaharlal Nehru Road (100 Feet Road)", "name:etymology:wikidata": "Q1047", "name:ta": "ஜவகர்லால் நேரு சாலை (100 அடி சாலை)", "oneway": "yes", "parking:both": "no", "ref": "IRR", "surface": "asphalt"}}, {"type": "Feature", "geometry": {"type": "Point", "coordinates": [80.1866293, 13.0853944]}, "properties": {"highway": "residential"}}, {"type": "Feature", "geometry": {"type": "Point", "coordinates": [80.1975755, 13.0855355]}, "properties": {"highway": "residential", "name": "Thiruvalluvar Street", "name:etymology:wikidata": "Q2353373", "name:ta": "திருவள்ளுவர் தெரு"}}, {"type": "Feature", "geometry": {"type": "Point", "coordinates": [80.190663, 13.0815983]}, "properties": {"highway": "residential"}}, {"type": "Feature", "geometry": {"type": "Point", "coordinates": [80.1924584, 13.0810661]}, "properties": {"highway": "residential"}}, {"type": "Feature", "geometry": {"type": "Point", "coordinates": [80.1924672, 13.0811963]}, "properties": {"highway": "residential"}}, {"type": "Feature", "geometry": {"type": "Point", "coordinates": [80.1924183, 13.0809021]}, "properties": {"highway": "residential"}}, {"type": "Feature", "geometry": {"type": "Point", "coordinates": [80.1920281, 13.080669]}, "properties": {"highway": "residential"}}, {"type": "Feature", "geometry": {"type": "Point", "coordinates": [80.1929166, 13.0812113]}, "properties": {"highway": "residential"}}, {"type": "Feature", "geometry": {"type": "Point", "coordinates": [80.1930422, 13.0817528]}, "properties": {"highway": "residential"}}, {"type": "Feature", "geometry": {"type": "Point", "coordinates": [80.1927357, 13.0818891]}, "properties": {"highway": "residential"}}, {"type": "Feature", "geometry": {"type": "Point", "coordinates": [80.1923249, 13.0819573]}, "properties": {"highway": "residential"}}, {"type": "Feature", "geometry": {"type": "Point", "coordinates": [80.1949517, 13.0838415]}, "properties": {"highway": "residential"}}, {"type": "Feature", "geometry": {"type": "Point", "coordinates": [80.1965658, 13.0835605]}, "properties": {"highway": "residential"}}, {"type": "Feature", "geometry": {"type": "Point", "coordinates": [80.1938773, 13.0890454]}, "properties": {"highway": "residential", "source": "maxar"}}, {"type": "Feature", "geometry": {"type": "Point", "coordinates": [80.1933174, 13.0831047]}, "properties": {"highway": "residential"}}, {"type": "Feature", "geometry": {"type": "Point", "coordinates": [80.192769, 13.0838416]}, "properties": {"highway": "residential"}}, {"type": "Feature", "geometry": {"type": "Point", "coordinates": [80.1889116, 13.0891719]}, "properties": {"highway": "residential", "name": "T.V.S. Colony 52nd Street"}}, {"type": "Feature", "geometry": {"type": "Point", "coordinates": [80.1873647, 13.0892242]}, "properties": {"highway": "residential", "name": "T.V.S. Colony 46th Street"}}, {"type": "Feature", "geometry": {"type": "Point", "coordinates": [80.1878679, 13.0847805]}, "properties": {"highway": "residential"}}, {"type": "Feature", "geometry": {"type": "Point", "coordinates": [80.1914664, 13.081169]}, "properties": {"access": "private", "highway": "residential"}}, {"type": "Feature", "geometry": {"type": "Point", "coordinates": [80.1913338, 13.0809386]}, "properties": {"access": "private", "highway": "residential"}}, {"type": "Feature", "geometry": {"type": "Point", "coordinates": [80.191364, 13.0807771]}, "properties": {"access": "private", "highway": "residential", "source": "digitalglobe"}}, {"type": "Feature", "geometry": {"type": "Point", "coordinates": [80.1910843, 13.0806141]}, "properties": {"access": "private", "highway": "residential"}}, {"type": "Feature", "geometry": {"type": "Point", "coordinates": [80.1910912, 13.0806215]}, "properties": {"access": "private", "highway": "residential"}}, {"type": "Feature", "geometry": {"type": "Point", "coordinates": [80.190787, 13.0802271]}, "properties": {"access": "private", "highway": "residential"}}, {"type": "Feature", "geometry": {"type": "Point", "coordinates": [80.195798, 13.0869328]}, "properties": {"access": "private", "highway": "residential"}}, {"type": "Feature", "geometry": {"type": "Point", "coordinates": [80.1956167, 13.0867948]}, "properties": {"access": "private", "highway": "residential"}}, {"type": "Feature", "geometry": {"type": "Point", "coordinates": [80.189468, 13.0915369]}, "properties": {"access": "private", "highway": "residential"}}, {"type": "Feature", "geometry": {"type": "Point", "coordinates": [80.1924734, 13.0935213]}, "properties": {"access": "private", "highway": "residential"}}, {"type": "Feature", "geometry": {"type": "Point", "coordinates": [80.1931239, 13.0925876]}, "properties": {"highway": "tertiary", "lanes": "1", "name": "Park Road", "oneway": "yes", "surface": "asphalt"}}, {"type": "Feature", "geometry": {"type": "Point", "coordinates": [80.1878763, 13.0918119]}, "properties": {"highway": "residential"}}, {"type": "Feature", "geometry": {"type": "Point", "coordinates": [80.1892859, 13.0914025]}, "properties": {"highway": "residential", "name": "T.V.S. Avenue 35th Street"}}, {"type": "Feature", "geometry": {"type": "Point", "coordinates": [80.190035, 13.092471]}, "properties": {"highway": "residential"}}, {"type": "Feature", "geometry": {"type": "Point", "coordinates": [80.1869951, 13.091565]}, "properties": {"highway": "residential"}}, {"type": "Feature", "geometry": {"type": "Point", "coordinates": [80.1870167, 13.089594]}, "properties": {"highway": "residential", "name": "T.V.S. Colony 48th Street"}}, {"type": "Feature", "geometry": {"type": "Point", "coordinates": [80.1876484, 13.0898506]}, "properties": {"highway": "residential", "surface": "asphalt"}}, {"type": "Feature", "geometry": {"type": "Point", "coordinates": [80.1894818, 13.0867808]}, "properties": {"highway": "residential", "name": "Kalaivanar Colony 1st Street"}}, {"type": "Feature", "geometry": {"type": "Point", "coordinates": [80.1901472, 13.0873268]}, "properties": {"highway": "residential"}}, {"type": "Feature", "geometry": {"type": "Point", "coordinates": [80.1908516, 13.0869512]}, "properties": {"highway": "residential"}}, {"type": "Feature", "geometry": {"type": "Point", "coordinates": [80.1985653, 13.0854127]}, "properties": {"highway": "secondary", "oneway": "yes"}}, {"type": "Feature", "geometry": {"type": "Point", "coordinates": [80.1984161, 13.0854167]}, "properties": {"highway": "residential", "oneway": "yes"}}, {"type": "Feature", "geometry": {"type": "Point", "coordinates": [80.1984164, 13.0853916]}, "properties": {"highway": "residential", "oneway": "yes"}}, {"type": "Feature", "geometry": {"type": "Point", "coordinates": [80.1914513, 13.0841793]}, "properties": {"access": "private", "highway": "residential"}}, {"type": "Feature", "geometry": {"type": "Point", "coordinates": [80.1920969, 13.0838761]}, "properties": {"access": "private", "highway": "residential", "oneway": "yes", "source": "digitalglobe"}}, {"type": "Feature", "geometry": {"type": "Point", "coordinates": [80.1921852, 13.0842634]}, "properties": {"access": "private", "highway": "residential", "oneway": "yes", "source": "digitalglobe"}}, {"type": "Feature", "geometry": {"type": "Point", "coordinates": [80.1917849, 13.0829577]}, "properties": {"access": "private", "highway": "residential"}}, {"type": "Feature", "geometry": {"type": "Point", "coordinates": [80.1913258, 13.0835573]}, "properties": {"access": "private", "highway": "residential"}}, {"type": "Feature", "geometry": {"type": "Point", "coordinates": [80.1914876, 13.0831727]}, "properties": {"access": "private", "highway": "residential"}}, {"type": "Feature", "geometry": {"type": "Point", "coordinates": [80.1915694, 13.0830376]}, "properties": {"access": "private", "highway": "residential", "junction": "roundabout"}}, {"type": "Feature", "geometry": {"type": "Point", "coordinates": [80.191773, 13.0829268]}, "properties": {"access": "private", "highway": "residential"}}, {"type": "Feature", "geometry": {"type": "Point", "coordinates": [80.1915241, 13.0833652]}, "properties": {"access": "private", "highway": "residential"}}, {"type": "Feature", "geometry": {"type": "Point", "coordinates": [80.1914706, 13.082782]}, "properties": {"access": "private", "highway": "residential"}}, {"type": "Feature", "geometry": {"type": "Point", "coordinates": [80.1984829, 13.0888449]}, "properties": {"highway": "primary", "motorroad": "no", "name": "Jawaharlal Nehru Road (100 Feet Road)", "name:etymology:wikidata": "Q1047", "name:ta": "ஜவகர்லால் நேரு சாலை (100 அடி சாலை)", "oneway": "yes", "parking:left": "lane", "parking:left:orientation": "parallel", "parking:right": "no", "ref": "IRR"}}, {"type": "Feature", "geometry": {"type": "Point", "coordinates": [80.1936334, 13.0885367]}, "properties": {"highway": "residential", "source": "digitalglobe"}}, {"type": "Feature", "geometry": {"type": "Point", "coordinates": [80.1955868, 13.0875599]}, "properties": {"highway": "residential"}}, {"type": "Feature", "geometry": {"type": "Point", "coordinates": [80.1983923, 13.0881138]}, "properties": {"access": "private", "highway": "residential"}}, {"type": "Feature", "geometry": {"type": "Point", "coordinates": [80.197595, 13.0878471]}, "properties": {"access": "private", "highway": "residential"}}, {"type": "Feature", "geometry": {"type": "Point", "coordinates": [80.1970081, 13.088113]}, "properties": {"highway": "residential"}}, {"type": "Feature", "geometry": {"type": "Point", "coordinates": [80.1970214, 13.0886196]}, "properties": {"highway": "residential"}}, {"type": "Feature", "geometry": {"type": "Point", "coordinates": [80.1969076, 13.0890575]}, "properties": {"access": "private", "highway": "residential"}}, {"type": "Feature", "geometry": {"type": "Point", "coordinates": [80.196201, 13.0885904]}, "properties": {"highway": "residential"}}, {"type": "Feature", "geometry": {"type": "Point", "coordinates": [80.1962247, 13.0888505]}, "properties": {"highway": "residential"}}, {"type": "Feature", "geometry": {"type": "Point", "coordinates": [80.1989086, 13.0898273]}, "properties": {"highway": "residential"}}, {"type": "Feature", "geometry": {"type": "Point", "coordinates": [80.1989243, 13.0900291]}, "properties": {"highway": "residential"}}, {"type": "Feature", "geometry": {"type": "Point", "coordinates": [80.1943653, 13.0800098]}, "properties": {"highway": "residential"}}, {"type": "Feature", "geometry": {"type": "Point", "coordinates": [80.1986692, 13.0900902]}, "properties": {"highway": "primary", "name": "Thirumangalam Flyover", "name:etymology:wikidata": "Q7785335", "official_name": "Inner Ring Road", "oneway": "yes", "ref": "SH2", "surface": "asphalt"}}, {"type": "Feature", "geometry": {"type": "Point", "coordinates": [80.1985006, 13.0825145]}, "properties": {"highway": "primary", "lanes": "2", "name": "Thirumangalam Flyover", "name:etymology:wikidata": "Q7785335", "official_name": "Inner Ring Road", "oneway": "yes", "parking:both": "no", "ref": "SH2", "surface": "asphalt"}}, {"type": "Feature", "geometry": {"type": "Point", "coordinates": [80.1985323, 13.0900866]}, "properties": {"highway": "primary", "name": "Thirumangalam Flyover", "name:etymology:wikidata": "Q7785335", "official_name": "Inner Ring Road", "oneway": "yes", "ref": "SH2", "surface": "asphalt"}}, {"type": "Feature", "geometry": {"type": "Point", "coordinates": [80.1985953, 13.0825443]}, "properties": {"highway": "primary", "lanes": "2", "name": "Thirumangalam Flyover", "name:etymology:wikidata": "Q7785335", "official_name": "Inner Ring Road", "oneway": "yes", "parking:both": "no", "ref": "SH2", "surface": "asphalt"}}, {"type": "Feature", "geometry": {"type": "Point", "coordinates": [80.1971614, 13.0814691]}, "properties": {"highway": "residential"}}, {"type": "Feature", "geometry": {"type": "Point", "coordinates": [80.1958531, 13.0857273]}, "properties": {"highway": "residential"}}, {"type": "Feature", "geometry": {"type": "Point", "coordinates": [80.1954706, 13.0857741]}, "properties": {"highway": "residential", "name": "Vetri Vinayagar Street", "name:ta": "வெற்றி விநாயகர் தெரு", "surface": "asphalt"}}, {"type": "Feature", "geometry": {"type": "Point", "coordinates": [80.1971733, 13.085719]}, "properties": {"highway": "residential", "source": "maxar"}}, {"type": "Feature", "geometry": {"type": "Point", "coordinates": [80.1964985, 13.086336]}, "properties": {"highway": "residential"}}]}